{
  "version": 0.6,
  "generator": "Overpass API 0.7.56.3 eb200aeb",
  "osm3s": {
    "timestamp_osm_base": "2020-08-11T16:48:08Z",
    "timestamp_areas_base": "2020-08-11T14:48:03Z",
    "copyright": "The data included in this document is from www.openstreetmap.org. The data is made available under ODbL."
  },
  "elements": [
    {
      "type": "node",
      "id": 461852681,
      "lat": 30.1789723,
      "lon": -95.538155,
      "tags": {
        "addr:city": "Spring",
        "addr:housenumber": "10777",
        "addr:postcode": "77382",
        "addr:state": "TX",
        "addr:street": "Kuykendahl Road",
        "brand": "H-E-B",
        "brand:wikidata": "Q830621",
        "brand:wikipedia": "en:H-E-B",
        "name": "H-E-B",
        "phone": "+1-281-292-8006",
        "shop": "supermarket"
      }
    },
    {
      "type": "node",
      "id": 1366833091,
      "lat": 30.1609598,
      "lon": -95.4592426,
      "tags": {
        "addr:housenumber": "25",
        "addr:street": "Waterway Avenue",
        "name": "Berripop Frozen Yogurt",
        "phone": "+1-281-419-8484",
        "shop": "confectionery"
      }
    },
    {
      "type": "node",
      "id": 1366833110,
      "lat": 30.1612281,
      "lon": -95.4588348,
      "tags": {
        "addr:housenumber": "24",
        "addr:street": "Waterway Avenue",
        "name": "Hubbell & Hudson Market",
        "opening_hours": "Su-Th 07:00-21:00; Fr-Sa 07:00-23:00",
        "shop": "supermarket"
      }
    },
    {
      "type": "node",
      "id": 3204079719,
      "lat": 30.1852759,
      "lon": -95.4903374,
      "tags": {
        "addr:city": "The Woodlands",
        "addr:housenumber": "4747",
        "addr:postcode": "77381",
        "addr:state": "TX",
        "addr:street": "Research Forest Drive",
        "brand": "Kroger",
        "brand:wikidata": "Q153417",
        "brand:wikipedia": "en:Kroger",
        "name": "Kroger",
        "phone": "(281) 367-1591",
        "shop": "supermarket"
      }
    },
    {
      "type": "node",
      "id": 3493886593,
      "lat": 30.21145,
      "lon": -95.455043,
      "tags": {
        "name": "Mercedes",
        "shop": "car"
      }
    },
    {
      "type": "node",
      "id": 3812774081,
      "lat": 30.1756232,
      "lon": -95.5355039,
      "tags": {
        "addr:city": "The Woodlands",
        "addr:housenumber": "10868",
        "addr:postcode": "77381",
        "addr:state": "TX",
        "addr:street": "Kuykendahl Road",
        "brand": "Nothing Bundt Cakes",
        "brand:wikidata": "Q62082526",
        "name": "Nothing Bundt Cakes",
        "opening_hours": "Mo-Sa 09:00-19:00",
        "phone": "+1-281-419-8026",
        "shop": "bakery"
      }
    },
    {
      "type": "node",
      "id": 4999638786,
      "lat": 30.1643842,
      "lon": -95.4550446,
      "tags": {
        "addr:city": "The Woodlands",
        "addr:housenumber": "1201",
        "addr:postcode": "77380",
        "addr:state": "TX",
        "addr:street": "Lake Woodlands Dr, Ste 400",
        "brand": "James Avery Jewelry",
        "brand:wikidata": "Q6129024",
        "brand:wikipedia": "en:James Avery Artisan Jewelry",
        "name": "James Avery Jewelry",
        "opening_hours": "Mo-Sa 10:00-21:00, Su 12:00-19:00",
        "operator": "James Avery",
        "phone": "+1-281-363-9300",
        "shop": "jewelry",
        "website": "https://www.jamesavery.com/custserv/store_details.jsp?storeId=799"
      }
    },
    {
      "type": "node",
      "id": 5235764621,
      "lat": 30.1637452,
      "lon": -95.4542543,
      "tags": {
        "brand": "Dick's Sporting Goods",
        "brand:wikidata": "Q5272601",
        "brand:wikipedia": "en:Dick's Sporting Goods",
        "name": "Dick's Sporting Goods",
        "shop": "sports"
      }
    },
    {
      "type": "node",
      "id": 5235805522,
      "lat": 30.1639012,
      "lon": -95.4553404,
      "tags": {
        "name": "Gold Elements",
        "shop": "hairdresser"
      }
    },
    {
      "type": "node",
      "id": 5235805524,
      "lat": 30.1644011,
      "lon": -95.4539762,
      "tags": {
        "brand": "Lane Bryant",
        "brand:wikidata": "Q6485350",
        "brand:wikipedia": "en:Lane Bryant",
        "clothes": "oversize;women",
        "name": "Lane Bryant",
        "shop": "clothes"
      }
    },
    {
      "type": "node",
      "id": 5235805525,
      "lat": 30.1642914,
      "lon": -95.4558396,
      "tags": {
        "name": "Lolli and Pops",
        "shop": "gift"
      }
    },
    {
      "type": "node",
      "id": 5235805526,
      "lat": 30.1645509,
      "lon": -95.4560861,
      "tags": {
        "name": "PB Teen",
        "shop": "clothes"
      }
    },
    {
      "type": "node",
      "id": 5235805527,
      "lat": 30.1645772,
      "lon": -95.4571257,
      "tags": {
        "brand": "Torrid",
        "brand:wikidata": "Q7827120",
        "brand:wikipedia": "en:Torrid (clothing retailer)",
        "name": "Torrid",
        "shop": "clothes"
      }
    },
    {
      "type": "node",
      "id": 5235805531,
      "lat": 30.1646565,
      "lon": -95.4555249,
      "tags": {
        "brand": "Talbots",
        "brand:wikidata": "Q7679064",
        "brand:wikipedia": "en:Talbots",
        "name": "Talbots",
        "shop": "clothes"
      }
    },
    {
      "type": "node",
      "id": 5235805533,
      "lat": 30.1648461,
      "lon": -95.4572163,
      "tags": {
        "brand": "Visionworks",
        "brand:wikidata": "Q5422607",
        "brand:wikipedia": "en:Visionworks",
        "name": "Visionworks",
        "shop": "optician"
      }
    },
    {
      "type": "node",
      "id": 5235821724,
      "lat": 30.1630322,
      "lon": -95.4552475,
      "tags": {
        "brand": "Anthropologie",
        "brand:wikidata": "Q4773903",
        "brand:wikipedia": "en:Anthropologie",
        "clothes": "women",
        "name": "Anthropologie",
        "shop": "clothes"
      }
    },
    {
      "type": "node",
      "id": 5235821729,
      "lat": 30.1633306,
      "lon": -95.4552563,
      "tags": {
        "brand": "White House Black Market",
        "brand:wikidata": "Q7994858",
        "brand:wikipedia": "en:White House Black Market",
        "name": "White House Black Market",
        "shop": "clothes"
      }
    },
    {
      "type": "node",
      "id": 5235821730,
      "lat": 30.1635311,
      "lon": -95.4552331,
      "tags": {
        "brand": "Janie & Jack",
        "brand:wikidata": "Q64449634",
        "brand:wikipedia": "en:Janie & Jack",
        "clothes": "children",
        "name": "Janie & Jack",
        "shop": "clothes"
      }
    },
    {
      "type": "node",
      "id": 5235821731,
      "lat": 30.1638067,
      "lon": -95.4557236,
      "tags": {
        "brand": "Banana Republic",
        "brand:wikidata": "Q806085",
        "brand:wikipedia": "en:Banana Republic",
        "clothes": "men;women",
        "name": "Banana Republic",
        "shop": "clothes"
      }
    },
    {
      "type": "node",
      "id": 5235821732,
      "lat": 30.1642473,
      "lon": -95.4556407,
      "tags": {
        "brand": "Victoria's Secret",
        "brand:wikidata": "Q332477",
        "brand:wikipedia": "en:Victoria's Secret",
        "clothes": "underwear;women",
        "name": "Victoria's Secret",
        "shop": "clothes"
      }
    },
    {
      "type": "node",
      "id": 5235821733,
      "lat": 30.1640691,
      "lon": -95.4555516,
      "tags": {
        "brand": "Free People",
        "brand:wikidata": "Q5499945",
        "brand:wikipedia": "en:Free People",
        "name": "Free People",
        "shop": "clothes"
      }
    },
    {
      "type": "node",
      "id": 5235821734,
      "lat": 30.1644414,
      "lon": -95.4555909,
      "tags": {
        "brand": "Chico's",
        "brand:wikidata": "Q5096393",
        "brand:wikipedia": "en:Chico's (clothing retailer)",
        "name": "Chico's",
        "shop": "clothes"
      }
    },
    {
      "type": "node",
      "id": 5235821735,
      "lat": 30.1643862,
      "lon": -95.455163,
      "tags": {
        "brand": "Abercrombie Kids",
        "brand:wikidata": "Q429856",
        "brand:wikipedia": "en:Abercrombie Kids",
        "clothes": "children",
        "name": "Abercrombie Kids",
        "shop": "clothes"
      }
    },
    {
      "type": "node",
      "id": 5235821737,
      "lat": 30.1642122,
      "lon": -95.4550088,
      "tags": {
        "brand": "Hanna Andersson",
        "brand:wikidata": "Q17460802",
        "brand:wikipedia": "en:Hanna Andersson",
        "clothes": "baby;children;women",
        "name": "Hanna Andersson",
        "shop": "clothes"
      }
    },
    {
      "type": "node",
      "id": 5235821739,
      "lat": 30.1642129,
      "lon": -95.454913,
      "tags": {
        "brand": "Aldo",
        "brand:wikidata": "Q2832297",
        "brand:wikipedia": "en:Aldo Group",
        "name": "Aldo",
        "shop": "shoes"
      }
    },
    {
      "type": "node",
      "id": 5235821740,
      "lat": 30.1643885,
      "lon": -95.4549149,
      "tags": {
        "name": "Altar'd State",
        "shop": "gift"
      }
    },
    {
      "type": "node",
      "id": 5235821741,
      "lat": 30.1642152,
      "lon": -95.4548288,
      "tags": {
        "name": "Nyx",
        "shop": "cosmetics"
      }
    },
    {
      "type": "node",
      "id": 5235821742,
      "lat": 30.1642163,
      "lon": -95.4547418,
      "tags": {
        "brand": "The Body Shop",
        "brand:wikidata": "Q837851",
        "brand:wikipedia": "en:The Body Shop",
        "name": "The Body Shop",
        "shop": "cosmetics"
      }
    },
    {
      "type": "node",
      "id": 5235821743,
      "lat": 30.1642168,
      "lon": -95.4545786,
      "tags": {
        "brand": "Coach",
        "brand:wikidata": "Q727697",
        "brand:wikipedia": "en:Coach New York",
        "name": "Coach",
        "shop": "bag"
      }
    },
    {
      "type": "node",
      "id": 5235821744,
      "lat": 30.1642173,
      "lon": -95.4544808,
      "tags": {
        "name": "Brookstone",
        "shop": "gift"
      }
    },
    {
      "type": "node",
      "id": 5235821745,
      "lat": 30.164392,
      "lon": -95.4545198,
      "tags": {
        "brand": "Call It Spring",
        "brand:wikidata": "Q7580363",
        "brand:wikipedia": "en:Call It Spring",
        "name": "Call It Spring",
        "shop": "shoes"
      }
    },
    {
      "type": "node",
      "id": 5235821746,
      "lat": 30.1642321,
      "lon": -95.4539697,
      "tags": {
        "name": "Love Culture",
        "shop": "clothes"
      }
    },
    {
      "type": "node",
      "id": 5235821747,
      "lat": 30.1642313,
      "lon": -95.4538639,
      "tags": {
        "brand": "Hallmark",
        "brand:wikidata": "Q1521910",
        "brand:wikipedia": "en:Hallmark Cards",
        "name": "Hallmark",
        "shop": "gift"
      }
    },
    {
      "type": "node",
      "id": 5235821748,
      "lat": 30.1644024,
      "lon": -95.4538772,
      "tags": {
        "name": "Cacique",
        "shop": "clothes"
      }
    },
    {
      "type": "node",
      "id": 5235821749,
      "lat": 30.1642336,
      "lon": -95.4537499,
      "tags": {
        "name": "Relaxen Bodywork",
        "shop": "massage"
      }
    },
    {
      "type": "node",
      "id": 5235821750,
      "lat": 30.1644015,
      "lon": -95.4537595,
      "tags": {
        "brand": "Foot Locker",
        "brand:wikidata": "Q63335",
        "brand:wikipedia": "en:Foot Locker",
        "name": "Foot Locker",
        "shop": "shoes"
      }
    },
    {
      "type": "node",
      "id": 5235821751,
      "lat": 30.1644031,
      "lon": -95.4536429,
      "tags": {
        "name": "The Fix",
        "shop": "mobile_phone"
      }
    },
    {
      "type": "node",
      "id": 5235821752,
      "lat": 30.1642314,
      "lon": -95.4536424,
      "tags": {
        "beauty": "nails",
        "leisure": "fitness_centre",
        "name": "Just Nails",
        "shop": "beauty"
      }
    },
    {
      "type": "node",
      "id": 5235821753,
      "lat": 30.1643247,
      "lon": -95.4531669,
      "tags": {
        "brand": "Dillard's",
        "brand:wikidata": "Q844805",
        "brand:wikipedia": "en:Dillard's",
        "name": "Dillard's",
        "shop": "department_store"
      }
    },
    {
      "type": "node",
      "id": 5235821755,
      "lat": 30.164525,
      "lon": -95.4543271,
      "tags": {
        "name": "B&B Newsstand",
        "shop": "convenience"
      }
    },
    {
      "type": "node",
      "id": 5235821756,
      "lat": 30.1642955,
      "lon": -95.4554649,
      "tags": {
        "name": "Carlo's Bakery",
        "shop": "bakery"
      }
    },
    {
      "type": "node",
      "id": 5235821757,
      "lat": 30.164268,
      "lon": -95.4553288,
      "tags": {
        "name": "Amazon",
        "shop": "electronics"
      }
    },
    {
      "type": "node",
      "id": 5235821758,
      "lat": 30.1644624,
      "lon": -95.4556835,
      "tags": {
        "brand": "Gap",
        "brand:wikidata": "Q420822",
        "brand:wikipedia": "en:Gap Inc.",
        "name": "Gap",
        "shop": "clothes"
      }
    },
    {
      "type": "node",
      "id": 5235821759,
      "lat": 30.1642727,
      "lon": -95.4557575,
      "tags": {
        "brand": "Vera Bradley",
        "brand:wikidata": "Q7920749",
        "brand:wikipedia": "en:Vera Bradley",
        "name": "Vera Bradley",
        "shop": "bag"
      }
    },
    {
      "type": "node",
      "id": 5235821760,
      "lat": 30.1643099,
      "lon": -95.4559335,
      "tags": {
        "brand": "Lego",
        "brand:wikidata": "Q1063455",
        "brand:wikipedia": "en:The Lego Group",
        "name": "Lego",
        "shop": "toys"
      }
    },
    {
      "type": "node",
      "id": 5235821761,
      "lat": 30.1645169,
      "lon": -95.4559363,
      "tags": {
        "brand": "Swarovski",
        "brand:wikidata": "Q611115",
        "brand:wikipedia": "en:Swarovski",
        "name": "Swarovski",
        "shop": "jewelry"
      }
    },
    {
      "type": "node",
      "id": 5235821762,
      "lat": 30.1643271,
      "lon": -95.4560171,
      "tags": {
        "name": "The art of Shving",
        "shop": "gift"
      }
    },
    {
      "type": "node",
      "id": 5235821763,
      "lat": 30.1645344,
      "lon": -95.4560121,
      "tags": {
        "name": "Milano",
        "shop": "clothes"
      }
    },
    {
      "type": "node",
      "id": 5235821764,
      "lat": 30.1644574,
      "lon": -95.45613,
      "tags": {
        "name": "Perfume Shop",
        "shop": "cosmetics"
      }
    },
    {
      "type": "node",
      "id": 5235821765,
      "lat": 30.1645648,
      "lon": -95.456157,
      "tags": {
        "brand": "Sperry",
        "brand:wikidata": "Q7576421",
        "brand:wikipedia": "en:Sperry Top-Sider",
        "name": "Sperry",
        "shop": "shoes"
      }
    },
    {
      "type": "node",
      "id": 5235821766,
      "lat": 30.1645844,
      "lon": -95.4562401,
      "tags": {
        "name": "Stadium Signatures",
        "shop": "sports"
      }
    },
    {
      "type": "node",
      "id": 5235821767,
      "lat": 30.1643824,
      "lon": -95.456267,
      "tags": {
        "name": "Soft Surroundings",
        "shop": "clothes"
      }
    },
    {
      "type": "node",
      "id": 5235821768,
      "lat": 30.1647573,
      "lon": -95.4562753,
      "tags": {
        "brand": "Michael Kors",
        "brand:wikidata": "Q19572998",
        "brand:wikipedia": "en:Capri Holdings",
        "name": "Michael Kors",
        "shop": "clothes"
      }
    },
    {
      "type": "node",
      "id": 5235821769,
      "lat": 30.1649007,
      "lon": -95.4562344,
      "tags": {
        "brand": "Arhaus",
        "brand:wikidata": "Q35689887",
        "brand:wikipedia": "en:Arhaus",
        "name": "Arhaus",
        "shop": "furniture"
      }
    },
    {
      "type": "node",
      "id": 5235821770,
      "lat": 30.1649496,
      "lon": -95.4564287,
      "tags": {
        "brand": "New York & Company",
        "brand:wikidata": "Q7012977",
        "brand:wikipedia": "en:New York & Company",
        "name": "New York & Company",
        "shop": "clothes"
      }
    },
    {
      "type": "node",
      "id": 5235821771,
      "lat": 30.165136,
      "lon": -95.4562912,
      "tags": {
        "brand": "Nordstrom",
        "brand:wikidata": "Q174310",
        "brand:wikipedia": "en:Nordstrom",
        "name": "Nordstrom",
        "shop": "department_store"
      }
    },
    {
      "type": "node",
      "id": 5235821772,
      "lat": 30.1648005,
      "lon": -95.4564753,
      "tags": {
        "name": "Kiehl's",
        "shop": "gift"
      }
    },
    {
      "type": "node",
      "id": 5235821773,
      "lat": 30.1645008,
      "lon": -95.4567304,
      "tags": {
        "brand": "Microsoft Store",
        "brand:wikidata": "Q1688786",
        "brand:wikipedia": "en:Microsoft Store",
        "name": "Microsoft Store",
        "shop": "electronics",
        "short_name": "Microsoft"
      }
    },
    {
      "type": "node",
      "id": 5235821774,
      "lat": 30.1646756,
      "lon": -95.4566742,
      "tags": {
        "brand": "Build-A-Bear Workshop",
        "brand:wikidata": "Q1002992",
        "brand:wikipedia": "en:Build-A-Bear Workshop",
        "name": "Build-A-Bear Workshop",
        "shop": "toys"
      }
    },
    {
      "type": "node",
      "id": 5235821776,
      "lat": 30.164184,
      "lon": -95.4565243,
      "tags": {
        "name": "Shapes Brow Bar",
        "shop": "beauty"
      }
    },
    {
      "type": "node",
      "id": 5235821777,
      "lat": 30.1647188,
      "lon": -95.4568566,
      "tags": {
        "brand": "Aeropostale",
        "brand:wikidata": "Q794565",
        "brand:wikipedia": "en:Aéropostale (clothing)",
        "clothes": "men;women",
        "name": "Aeropostale",
        "shop": "clothes"
      }
    },
    {
      "type": "node",
      "id": 5235821778,
      "lat": 30.1645509,
      "lon": -95.4569092,
      "tags": {
        "brand": "Hollister",
        "brand:wikidata": "Q1257477",
        "brand:wikipedia": "en:Hollister Co.",
        "name": "Hollister",
        "official_name": "Hollister Co.",
        "shop": "clothes"
      }
    },
    {
      "type": "node",
      "id": 5235821779,
      "lat": 30.1645519,
      "lon": -95.4570279,
      "tags": {
        "brand": "Destination Maternity",
        "brand:wikidata": "Q79051770",
        "clothes": "maternity",
        "name": "Destination Maternity",
        "shop": "clothes"
      }
    },
    {
      "type": "node",
      "id": 5235821780,
      "lat": 30.1646136,
      "lon": -95.4572745,
      "tags": {
        "old_name": "Payless ShoeSource",
        "shop": "vacant"
      }
    },
    {
      "type": "node",
      "id": 5235821781,
      "lat": 30.1648308,
      "lon": -95.4575688,
      "tags": {
        "brand": "Macy's",
        "brand:wikidata": "Q629269",
        "brand:wikipedia": "en:Macy's",
        "name": "Macy's",
        "shop": "department_store"
      }
    },
    {
      "type": "node",
      "id": 5235821783,
      "lat": 30.1638415,
      "lon": -95.4555808,
      "tags": {
        "name": "Snip its",
        "shop": "hairdresser"
      }
    },
    {
      "type": "node",
      "id": 5235821788,
      "lat": 30.1641184,
      "lon": -95.4550032,
      "tags": {
        "name": "Great American Cookies",
        "shop": "confectionery"
      }
    },
    {
      "type": "node",
      "id": 5235821791,
      "lat": 30.1610905,
      "lon": -95.4567055,
      "tags": {
        "brand": "Xfinity",
        "brand:wikidata": "Q5151002",
        "brand:wikipedia": "en:Xfinity",
        "name": "Xfinity",
        "shop": "telecommunication"
      }
    },
    {
      "type": "node",
      "id": 5235821792,
      "lat": 30.1611098,
      "lon": -95.4571674,
      "tags": {
        "name": "Ferrari",
        "shop": "car"
      }
    },
    {
      "type": "node",
      "id": 5235822523,
      "lat": 30.1631396,
      "lon": -95.4558478,
      "tags": {
        "brand": "Barnes & Noble",
        "brand:wikidata": "Q795454",
        "brand:wikipedia": "en:Barnes & Noble",
        "name": "Barnes & Noble",
        "shop": "books"
      }
    },
    {
      "type": "node",
      "id": 5235822524,
      "lat": 30.1635217,
      "lon": -95.4558288,
      "tags": {
        "brand": "Pottery Barn",
        "brand:wikidata": "Q3400126",
        "brand:wikipedia": "en:Pottery Barn",
        "name": "Pottery Barn",
        "shop": "furniture"
      }
    },
    {
      "type": "node",
      "id": 5235822525,
      "lat": 30.1637125,
      "lon": -95.4557997,
      "tags": {
        "name": "Potterybarn Kids",
        "shop": "gift"
      }
    },
    {
      "type": "node",
      "id": 5235822526,
      "lat": 30.1637215,
      "lon": -95.4552589,
      "tags": {
        "brand": "Urban Outfitters",
        "brand:wikidata": "Q3552193",
        "brand:wikipedia": "en:Urban Outfitters",
        "name": "Urban Outfitters",
        "shop": "clothes"
      }
    },
    {
      "type": "node",
      "id": 5235822527,
      "lat": 30.1636228,
      "lon": -95.4552202,
      "tags": {
        "brand": "Loft",
        "brand:wikidata": "Q62075137",
        "clothes": "women",
        "name": "Loft",
        "operator": "Ann Inc.",
        "operator:wikidata": "Q4766699",
        "operator:wikipedia": "en:Ann Inc.",
        "shop": "clothes"
      }
    },
    {
      "type": "node",
      "id": 5235822528,
      "lat": 30.1639774,
      "lon": -95.4553336,
      "tags": {
        "name": "Oil & Vinegar",
        "shop": "gift"
      }
    },
    {
      "type": "node",
      "id": 5235822529,
      "lat": 30.1641433,
      "lon": -95.455234,
      "tags": {
        "brand": "Abercrombie & Fitch",
        "brand:wikidata": "Q319344",
        "brand:wikipedia": "en:Abercrombie & Fitch",
        "clothes": "men;women",
        "name": "Abercrombie & Fitch",
        "shop": "clothes"
      }
    },
    {
      "type": "node",
      "id": 5235822530,
      "lat": 30.1643967,
      "lon": -95.4552876,
      "tags": {
        "alt_name": "Soma Intimates",
        "brand": "Soma",
        "brand:wikidata": "Q69882213",
        "clothes": "underwear;women",
        "name": "Soma",
        "shop": "clothes"
      }
    },
    {
      "type": "node",
      "id": 5235822531,
      "lat": 30.1642135,
      "lon": -95.455116,
      "tags": {
        "brand": "Pandora",
        "brand:wikidata": "Q2241604",
        "brand:wikipedia": "en:Pandora (jewelry)",
        "name": "Pandora",
        "shop": "jewelry"
      }
    },
    {
      "type": "node",
      "id": 5235822532,
      "lat": 30.1643917,
      "lon": -95.4547869,
      "tags": {
        "name": "Athleta",
        "shop": "clothes"
      }
    },
    {
      "type": "node",
      "id": 5235822534,
      "lat": 30.1643956,
      "lon": -95.4546612,
      "tags": {
        "brand": "Sephora",
        "brand:wikidata": "Q2408041",
        "brand:wikipedia": "en:Sephora",
        "name": "Sephora",
        "shop": "cosmetics"
      }
    },
    {
      "type": "node",
      "id": 5235822535,
      "lat": 30.1649502,
      "lon": -95.4542784,
      "tags": {
        "brand": "JCPenney",
        "brand:wikidata": "Q920037",
        "brand:wikipedia": "en:J. C. Penney",
        "name": "JCPenney",
        "official_name": "J.C. Penney Company",
        "shop": "department_store"
      }
    },
    {
      "type": "node",
      "id": 5235822536,
      "lat": 30.1644833,
      "lon": -95.4557696,
      "tags": {
        "brand": "Apple Store",
        "brand:wikidata": "Q421253",
        "brand:wikipedia": "en:Apple Store",
        "name": "Apple Store",
        "shop": "electronics",
        "short_name": "Apple"
      }
    },
    {
      "type": "node",
      "id": 5235822537,
      "lat": 30.1644043,
      "lon": -95.4558573,
      "tags": {
        "name": "Dermalactives",
        "shop": "cosmetics"
      }
    },
    {
      "type": "node",
      "id": 5235822538,
      "lat": 30.1644989,
      "lon": -95.4558568,
      "tags": {
        "brand": "Godiva Chocolatier",
        "brand:wikidata": "Q931084",
        "brand:wikipedia": "en:Godiva Chocolatier",
        "name": "Godiva Chocolatier",
        "shop": "chocolate",
        "short_name": "Godiva"
      }
    },
    {
      "type": "node",
      "id": 5235822539,
      "lat": 30.1643454,
      "lon": -95.4561039,
      "tags": {
        "brand": "Pink",
        "brand:wikidata": "Q20716793",
        "brand:wikipedia": "en:Pink (Victoria's Secret)",
        "clothes": "underwear;women",
        "name": "Pink",
        "shop": "clothes"
      }
    },
    {
      "type": "node",
      "id": 5235822540,
      "lat": 30.1638741,
      "lon": -95.4566937,
      "tags": {
        "brand": "Forever 21",
        "brand:wikidata": "Q1060537",
        "brand:wikipedia": "en:Forever 21",
        "name": "Forever 21",
        "shop": "clothes"
      }
    },
    {
      "type": "node",
      "id": 5235822541,
      "lat": 30.1646969,
      "lon": -95.456762,
      "tags": {
        "name": "Adore",
        "shop": "cosmetics"
      }
    },
    {
      "type": "node",
      "id": 5235822542,
      "lat": 30.1647747,
      "lon": -95.456944,
      "tags": {
        "brand": "Garage",
        "brand:wikidata": "Q5521860",
        "brand:wikipedia": "en:Garage (clothing retailer)",
        "clothes": "women",
        "name": "Garage",
        "shop": "clothes"
      }
    },
    {
      "type": "node",
      "id": 5235822543,
      "lat": 30.1648061,
      "lon": -95.4570379,
      "tags": {
        "name": "Al's Formal Wear",
        "shop": "clothes"
      }
    },
    {
      "type": "node",
      "id": 5235822544,
      "lat": 30.1648261,
      "lon": -95.4571257,
      "tags": {
        "brand": "Mastercuts",
        "brand:wikidata": "Q64026258",
        "name": "Mastercuts",
        "shop": "hairdresser"
      }
    },
    {
      "type": "node",
      "id": 5235822547,
      "lat": 30.164566,
      "lon": -95.4555499,
      "tags": {
        "brand": "Zales",
        "brand:wikidata": "Q8065305",
        "brand:wikipedia": "en:Zale Corporation",
        "name": "Zales",
        "shop": "jewelry"
      }
    },
    {
      "type": "node",
      "id": 5235822548,
      "lat": 30.1645308,
      "lon": -95.4552777,
      "tags": {
        "brand": "Helzberg Diamonds",
        "brand:wikidata": "Q16995161",
        "brand:wikipedia": "en:Helzberg Diamonds",
        "name": "Helzberg Diamonds",
        "shop": "jewelry"
      }
    },
    {
      "type": "node",
      "id": 5237170824,
      "lat": 30.1645839,
      "lon": -95.4556377,
      "tags": {
        "name": "Teavana",
        "shop": "gift"
      }
    },
    {
      "type": "node",
      "id": 5237170825,
      "lat": 30.1645987,
      "lon": -95.4557086,
      "tags": {
        "name": "Solstice",
        "shop": "optician"
      }
    },
    {
      "type": "node",
      "id": 5237170826,
      "lat": 30.1646121,
      "lon": -95.4557795,
      "tags": {
        "brand": "Talbots",
        "brand:wikidata": "Q7679064",
        "brand:wikipedia": "en:Talbots",
        "name": "Talbots",
        "shop": "clothes"
      }
    },
    {
      "type": "node",
      "id": 5237170827,
      "lat": 30.1646842,
      "lon": -95.4561265,
      "tags": {
        "brand": "Gymboree",
        "brand:wikidata": "Q4039771",
        "brand:wikipedia": "en:Gymboree",
        "name": "Gymboree",
        "shop": "clothes"
      }
    },
    {
      "type": "node",
      "id": 5237170828,
      "lat": 30.1642286,
      "lon": -95.4561027,
      "tags": {
        "brand": "Hot Topic",
        "brand:wikidata": "Q9294032",
        "brand:wikipedia": "en:Hot Topic",
        "name": "Hot Topic",
        "shop": "clothes"
      }
    },
    {
      "type": "node",
      "id": 5237170829,
      "lat": 30.1646956,
      "lon": -95.4561944,
      "tags": {
        "brand": "Finish Line",
        "brand:wikidata": "Q5450341",
        "brand:wikipedia": "en:Finish Line, Inc.",
        "name": "Finish Line",
        "shop": "sports"
      }
    },
    {
      "type": "node",
      "id": 5237170830,
      "lat": 30.1648381,
      "lon": -95.4561006,
      "tags": {
        "brand": "Journeys",
        "brand:wikidata": "Q61994838",
        "name": "Journeys",
        "operator": "Genesco",
        "operator:wikidata": "Q5532704",
        "operator:wikipedia": "en:Genesco",
        "shop": "shoes"
      }
    },
    {
      "type": "node",
      "id": 5237170833,
      "lat": 30.1650484,
      "lon": -95.4565711,
      "tags": {
        "brand": "Charlotte Russe",
        "brand:wikidata": "Q5086126",
        "brand:wikipedia": "en:Charlotte Russe (clothing retailer)",
        "name": "Charlotte Russe",
        "shop": "clothes"
      }
    },
    {
      "type": "node",
      "id": 5237170834,
      "lat": 30.1644102,
      "lon": -95.4568982,
      "tags": {
        "brand": "Buckle",
        "brand:wikidata": "Q4983306",
        "brand:wikipedia": "en:Buckle (clothing retailer)",
        "clothes": "men;women;children",
        "name": "Buckle",
        "shop": "clothes"
      }
    },
    {
      "type": "node",
      "id": 5237170835,
      "lat": 30.1644286,
      "lon": -95.4569931,
      "tags": {
        "name": "Perfume Shop",
        "shop": "cosmetics"
      }
    },
    {
      "type": "node",
      "id": 5237170836,
      "lat": 30.1648726,
      "lon": -95.456735,
      "tags": {
        "brand": "Vans",
        "brand:wikidata": "Q1135366",
        "brand:wikipedia": "en:Vans",
        "name": "Vans",
        "shop": "shoes"
      }
    },
    {
      "type": "node",
      "id": 5237170837,
      "lat": 30.1648942,
      "lon": -95.4568299,
      "tags": {
        "brand": "Zumiez",
        "brand:wikidata": "Q8075252",
        "brand:wikipedia": "en:Zumiez",
        "name": "Zumiez",
        "shop": "clothes"
      }
    },
    {
      "type": "node",
      "id": 5237170839,
      "lat": 30.1650074,
      "lon": -95.4572209,
      "tags": {
        "brand": "GNC",
        "brand:wikidata": "Q4808595",
        "brand:wikipedia": "en:GNC (store)",
        "name": "GNC",
        "shop": "nutrition_supplements"
      }
    },
    {
      "type": "node",
      "id": 5237170848,
      "lat": 30.164388,
      "lon": -95.4557789,
      "tags": {
        "brand": "Sunglass Hut",
        "brand:wikidata": "Q136311",
        "brand:wikipedia": "en:Sunglass Hut",
        "name": "Sunglass Hut",
        "shop": "optician"
      }
    },
    {
      "type": "node",
      "id": 5237170850,
      "lat": 30.1645293,
      "lon": -95.4551776,
      "tags": {
        "brand": "Clarks",
        "brand:wikidata": "Q1095857",
        "brand:wikipedia": "en:C. & J. Clark",
        "name": "Clarks",
        "shop": "shoes"
      }
    },
    {
      "type": "node",
      "id": 5237170851,
      "lat": 30.16453,
      "lon": -95.4549355,
      "tags": {
        "brand": "Express",
        "brand:wikidata": "Q1384784",
        "brand:wikipedia": "en:Express, Inc.",
        "name": "Express",
        "shop": "clothes"
      }
    },
    {
      "type": "node",
      "id": 5237170852,
      "lat": 30.1641184,
      "lon": -95.4549121,
      "tags": {
        "brand": "Lids",
        "brand:wikidata": "Q19841609",
        "brand:wikipedia": "en:Lids (store)",
        "clothes": "hats",
        "name": "Lids",
        "shop": "clothes"
      }
    },
    {
      "type": "node",
      "id": 5237170853,
      "lat": 30.1641193,
      "lon": -95.4547519,
      "tags": {
        "name": "Best of Canvas",
        "shop": "gift"
      }
    },
    {
      "type": "node",
      "id": 5237170855,
      "lat": 30.1641191,
      "lon": -95.4546753,
      "tags": {
        "name": "Journeys Kidz",
        "shop": "clothes"
      }
    },
    {
      "type": "node",
      "id": 5237170856,
      "lat": 30.1641192,
      "lon": -95.4545959,
      "tags": {
        "brand": "Yankee Candle",
        "brand:wikidata": "Q8048733",
        "brand:wikipedia": "en:Yankee Candle",
        "name": "Yankee Candle",
        "shop": "candles"
      }
    },
    {
      "type": "node",
      "id": 5237170857,
      "lat": 30.1641186,
      "lon": -95.4544306,
      "tags": {
        "name": "Fanzz",
        "shop": "clothes"
      }
    },
    {
      "type": "node",
      "id": 5237170858,
      "lat": 30.1645313,
      "lon": -95.4547995,
      "tags": {
        "alt_name": "Children's Place",
        "brand": "The Children's Place",
        "brand:wikidata": "Q3520257",
        "brand:wikipedia": "en:The Children's Place",
        "name": "The Children's Place",
        "shop": "clothes"
      }
    },
    {
      "type": "node",
      "id": 5237170859,
      "lat": 30.1645312,
      "lon": -95.4546502,
      "tags": {
        "brand": "Disney Store",
        "brand:wikidata": "Q1047009",
        "brand:wikipedia": "en:Disney Store",
        "name": "Disney Store",
        "operator": "Disney Consumer Products",
        "operator:wikidata": "Q3030410",
        "operator:wikipedia": "en:Disney Consumer Products and Interactive Media",
        "shop": "gift"
      }
    },
    {
      "type": "node",
      "id": 5237170860,
      "lat": 30.1645676,
      "lon": -95.4539765,
      "tags": {
        "name": "Samuels Jewelers",
        "shop": "jewelry"
      }
    },
    {
      "type": "node",
      "id": 5237170861,
      "lat": 30.1645703,
      "lon": -95.4538056,
      "tags": {
        "name": "Fly Zone",
        "shop": "clothes"
      }
    },
    {
      "type": "node",
      "id": 5237170862,
      "lat": 30.1645728,
      "lon": -95.4537291,
      "tags": {
        "brand": "Sleep Number",
        "brand:wikidata": "Q7447640",
        "brand:wikipedia": "en:Sleep Number",
        "name": "Sleep Number",
        "shop": "bed"
      }
    },
    {
      "type": "node",
      "id": 5237170863,
      "lat": 30.1645799,
      "lon": -95.4534935,
      "tags": {
        "name": "Y'alls Texas Store",
        "shop": "gift"
      }
    },
    {
      "type": "node",
      "id": 5237170865,
      "lat": 30.1641259,
      "lon": -95.4537649,
      "tags": {
        "brand": "JoS. A. Bank",
        "brand:wikidata": "Q6204078",
        "brand:wikipedia": "en:JoS. A. Bank Clothiers",
        "name": "JoS. A. Bank",
        "official_name": "Jos. A. Bank Clothiers",
        "shop": "clothes"
      }
    },
    {
      "type": "node",
      "id": 5237170873,
      "lat": 30.1643125,
      "lon": -95.4542748,
      "tags": {
        "name": "Woops Macarons",
        "shop": "confectionery"
      }
    },
    {
      "type": "node",
      "id": 5237170874,
      "lat": 30.1643083,
      "lon": -95.4548627,
      "tags": {
        "name": "Cellairis",
        "shop": "variety_store"
      }
    },
    {
      "type": "node",
      "id": 5237170877,
      "lat": 30.1642938,
      "lon": -95.4552113,
      "tags": {
        "name": "Lionesse",
        "shop": "cosmetics"
      }
    },
    {
      "type": "node",
      "id": 5237170922,
      "lat": 30.164641,
      "lon": -95.4559181,
      "tags": {
        "brand": "Claire's",
        "brand:wikidata": "Q2974996",
        "brand:wikipedia": "en:Claire's",
        "name": "Claire's",
        "shop": "fashion_accessories"
      }
    },
    {
      "type": "node",
      "id": 5237170923,
      "lat": 30.1646695,
      "lon": -95.4560593,
      "tags": {
        "brand": "Things Remembered",
        "brand:wikidata": "Q54958287",
        "brand:wikipedia": "en:Things Remembered",
        "name": "Things Remembered",
        "shop": "gift"
      }
    },
    {
      "type": "node",
      "id": 5237170924,
      "lat": 30.1641724,
      "lon": -95.4558149,
      "tags": {
        "brand": "Kay Jewelers",
        "brand:wikidata": "Q62029290",
        "name": "Kay Jewelers",
        "operator": "Sterling Jewelers",
        "operator:wikidata": "Q7611434",
        "operator:wikipedia": "en:Sterling Jewelers",
        "shop": "jewelry"
      }
    },
    {
      "type": "node",
      "id": 5237170925,
      "lat": 30.1641981,
      "lon": -95.4559573,
      "tags": {
        "brand": "Fossil",
        "brand:wikidata": "Q356212",
        "brand:wikipedia": "en:Fossil Group",
        "name": "Fossil",
        "shop": "watches"
      }
    },
    {
      "type": "node",
      "id": 5237170926,
      "lat": 30.164214,
      "lon": -95.4560334,
      "tags": {
        "brand": "Sunglass Hut",
        "brand:wikidata": "Q136311",
        "brand:wikipedia": "en:Sunglass Hut",
        "name": "Sunglass Hut",
        "shop": "optician"
      }
    },
    {
      "type": "node",
      "id": 5237170927,
      "lat": 30.1642496,
      "lon": -95.4561974,
      "tags": {
        "brand": "American Eagle Outfitters",
        "brand:wikidata": "Q2842931",
        "brand:wikipedia": "en:American Eagle Outfitters",
        "clothes": "men;women",
        "name": "American Eagle Outfitters",
        "shop": "clothes",
        "short_name": "American Eagle"
      }
    },
    {
      "type": "node",
      "id": 5237170928,
      "lat": 30.163995,
      "lon": -95.4564354,
      "tags": {
        "name": "As Seen on TV Plus",
        "shop": "gift"
      }
    },
    {
      "type": "node",
      "id": 5237170929,
      "lat": 30.1643881,
      "lon": -95.4567964,
      "tags": {
        "name": "Jarmz",
        "shop": "gift"
      }
    },
    {
      "type": "node",
      "id": 5237170930,
      "lat": 30.1649313,
      "lon": -95.4570006,
      "tags": {
        "brand": "Spencer Gifts",
        "brand:wikidata": "Q7576055",
        "brand:wikipedia": "en:Spencer Gifts",
        "name": "Spencer's",
        "official_name": "Spencer Gifts",
        "shop": "gift"
      }
    },
    {
      "type": "node",
      "id": 5237170931,
      "lat": 30.1649786,
      "lon": -95.4571518,
      "tags": {
        "name": "Pet Fair",
        "shop": "pet"
      }
    },
    {
      "type": "node",
      "id": 5237170932,
      "lat": 30.1650517,
      "lon": -95.457372,
      "tags": {
        "name": "My Smile",
        "shop": "gift"
      }
    },
    {
      "type": "node",
      "id": 5237170937,
      "lat": 30.164421,
      "lon": -95.4559326,
      "tags": {
        "name": "€J",
        "shop": "jewelry"
      }
    },
    {
      "type": "node",
      "id": 5237170940,
      "lat": 30.1645292,
      "lon": -95.4550805,
      "tags": {
        "brand": "Bath & Body Works",
        "brand:wikidata": "Q810773",
        "brand:wikipedia": "en:Bath & Body Works",
        "name": "Bath & Body Works",
        "shop": "cosmetics"
      }
    },
    {
      "type": "node",
      "id": 5237170941,
      "lat": 30.1641186,
      "lon": -95.4548324,
      "tags": {
        "brand": "Justice",
        "brand:wikidata": "Q7857512",
        "brand:wikipedia": "en:Tween Brands",
        "name": "Justice",
        "shop": "clothes"
      }
    },
    {
      "type": "node",
      "id": 5237170943,
      "lat": 30.1641183,
      "lon": -95.4545117,
      "tags": {
        "brand": "T-Mobile",
        "brand:wikidata": "Q327634",
        "brand:wikipedia": "en:T-Mobile",
        "name": "T-Mobile",
        "shop": "mobile_phone"
      }
    },
    {
      "type": "node",
      "id": 5237170944,
      "lat": 30.1641169,
      "lon": -95.4543402,
      "tags": {
        "brand": "Vitamin World",
        "brand:wikidata": "Q7936979",
        "brand:wikipedia": "en:Vitamin World",
        "name": "Vitamin World",
        "shop": "nutrition_supplements"
      }
    },
    {
      "type": "node",
      "id": 5237170945,
      "lat": 30.1641261,
      "lon": -95.4539516,
      "tags": {
        "name": "Visible Changes",
        "shop": "hairdresser"
      }
    },
    {
      "type": "node",
      "id": 5237170946,
      "lat": 30.1645692,
      "lon": -95.4538905,
      "tags": {
        "brand": "Foot Locker",
        "brand:wikidata": "Q63335",
        "brand:wikipedia": "en:Foot Locker",
        "name": "Kids Foot Locker",
        "shop": "shoes"
      }
    },
    {
      "type": "node",
      "id": 5237170947,
      "lat": 30.1645756,
      "lon": -95.4536577,
      "tags": {
        "brand": "Rockport",
        "brand:wikidata": "Q4048384",
        "brand:wikipedia": "en:Rockport (company)",
        "name": "Rockport",
        "shop": "shoes"
      }
    },
    {
      "type": "node",
      "id": 5237170948,
      "lat": 30.164578,
      "lon": -95.4535857,
      "tags": {
        "brand": "Ecco",
        "brand:wikidata": "Q1280255",
        "brand:wikipedia": "en:ECCO",
        "name": "Ecco",
        "shop": "shoes"
      }
    },
    {
      "type": "node",
      "id": 5237170953,
      "lat": 30.1643103,
      "lon": -95.4547469,
      "tags": {
        "name": "Go! Games",
        "shop": "toys"
      }
    },
    {
      "type": "node",
      "id": 5237170954,
      "lat": 30.1642992,
      "lon": -95.4550412,
      "tags": {
        "brand": "Sprint",
        "brand:wikidata": "Q301965",
        "brand:wikipedia": "en:Sprint Corporation",
        "name": "Sprint",
        "shop": "mobile_phone"
      }
    },
    {
      "type": "node",
      "id": 5237171321,
      "lat": 30.1646267,
      "lon": -95.4558501,
      "tags": {
        "name": "Brighton",
        "shop": "gift"
      }
    },
    {
      "type": "node",
      "id": 5237171322,
      "lat": 30.1646542,
      "lon": -95.4559827,
      "tags": {
        "brand": "AT&T",
        "brand:wikidata": "Q298594",
        "brand:wikipedia": "en:AT&T Mobility",
        "name": "AT&T",
        "shop": "mobile_phone"
      }
    },
    {
      "type": "node",
      "id": 5237171323,
      "lat": 30.1641845,
      "lon": -95.4558893,
      "tags": {
        "brand": "Oakley",
        "brand:wikidata": "Q161906",
        "brand:wikipedia": "en:Oakley, Inc.",
        "name": "Oakley",
        "shop": "optician"
      }
    },
    {
      "type": "node",
      "id": 5237171324,
      "lat": 30.1648537,
      "lon": -95.4566413,
      "tags": {
        "name": "Lovesac",
        "shop": "gift"
      }
    },
    {
      "type": "node",
      "id": 5237171325,
      "lat": 30.1649453,
      "lon": -95.4570769,
      "tags": {
        "brand": "GameStop",
        "brand:wikidata": "Q202210",
        "brand:wikipedia": "en:GameStop",
        "name": "GameStop",
        "shop": "video_games"
      }
    },
    {
      "type": "node",
      "id": 5237171326,
      "lat": 30.1644831,
      "lon": -95.4572368,
      "tags": {
        "name": "Macy's Children's",
        "shop": "department_store"
      }
    },
    {
      "type": "node",
      "id": 5237171327,
      "lat": 30.1650324,
      "lon": -95.4572936,
      "tags": {
        "name": "Regis",
        "shop": "hairdresser"
      }
    },
    {
      "type": "node",
      "id": 5237171329,
      "lat": 30.1646556,
      "lon": -95.4569788,
      "tags": {
        "name": "RMLA",
        "shop": "cosmetics"
      }
    },
    {
      "type": "node",
      "id": 5237171334,
      "lat": 30.1643503,
      "lon": -95.4556194,
      "tags": {
        "name": "Cellairis",
        "shop": "mobile_phone"
      }
    },
    {
      "type": "node",
      "id": 5237171621,
      "lat": 30.1644493,
      "lon": -95.4571013,
      "tags": {
        "brand": "PacSun",
        "brand:wikidata": "Q7121857",
        "brand:wikipedia": "en:PacSun",
        "name": "PacSun",
        "shop": "clothes"
      }
    },
    {
      "type": "node",
      "id": 5294234254,
      "lat": 30.1688663,
      "lon": -95.4715455,
      "tags": {
        "addr:city": "The Woodlands",
        "addr:housenumber": "2025",
        "addr:postcode": "77380",
        "addr:state": "TX",
        "addr:street": "Hughes Landing Boulevard",
        "addr:unit": "100",
        "brand": "Pier 1 Imports",
        "brand:wikidata": "Q7191691",
        "brand:wikipedia": "en:Pier 1 Imports",
        "name": "Pier 1 Imports",
        "shop": "interior_decoration"
      }
    },
    {
      "type": "node",
      "id": 5700510509,
      "lat": 30.1705022,
      "lon": -95.4731922,
      "tags": {
        "boat:rental": "yes",
        "name": "Lakes Edge Boat House",
        "shop": "boat"
      }
    },
    {
      "type": "node",
      "id": 5700516328,
      "lat": 30.1600476,
      "lon": -95.4665834,
      "tags": {
        "boat:rental": "yes",
        "name": "Riva Row Boat House",
        "shop": "boat"
      }
    },
    {
      "type": "node",
      "id": 5763809235,
      "lat": 30.1679176,
      "lon": -95.5039638,
      "tags": {
        "addr:city": "The Woodlands",
        "addr:housenumber": "4775",
        "addr:postcode": "77381",
        "addr:state": "TX",
        "addr:street": "West Panther Creek Drive",
        "addr:unit": "B-245",
        "name": "Robichau's Jewelry",
        "opening_hours": "Mo-Fr 10:00-18:00; Sa 10:00-15:00",
        "payment:american_express": "yes",
        "payment:cash": "yes",
        "payment:cheque": "yes",
        "payment:discover_card": "yes",
        "payment:mastercard": "yes",
        "payment:visa": "yes",
        "phone": "+1-281-367-7807",
        "shop": "jewelry",
        "website": "https://www.robichausjewelry.com/"
      }
    },
    {
      "type": "node",
      "id": 5910826356,
      "lat": 30.1763817,
      "lon": -95.5358217,
      "tags": {
        "addr:city": "The Woodlands",
        "addr:housenumber": "10868",
        "addr:postcode": "77381",
        "addr:state": "TX",
        "addr:street": "Kuykendahl Road",
        "brand": "Trader Joe's",
        "brand:wikidata": "Q688825",
        "brand:wikipedia": "en:Trader Joe's",
        "name": "Trader Joe's",
        "phone": "+1-281-465-0254",
        "shop": "supermarket"
      }
    },
    {
      "type": "node",
      "id": 6595408032,
      "lat": 30.1860881,
      "lon": -95.4903925,
      "tags": {
        "brand": "Tide Cleaners",
        "brand:wikidata": "Q66048841",
        "name": "Tide Cleaners",
        "shop": "dry_cleaning"
      }
    },
    {
      "type": "node",
      "id": 6740172887,
      "lat": 30.1674925,
      "lon": -95.4610542,
      "tags": {
        "brand": "Great Clips",
        "brand:wikidata": "Q5598967",
        "brand:wikipedia": "en:Great Clips",
        "name": "Great Clips",
        "shop": "hairdresser"
      }
    },
    {
      "type": "node",
      "id": 6740172889,
      "lat": 30.168467,
      "lon": -95.4606823,
      "tags": {
        "brand": "Ross",
        "brand:wikidata": "Q3442791",
        "brand:wikipedia": "en:Ross Stores",
        "name": "Ross",
        "official_name": "Ross Dress for Less",
        "shop": "department_store"
      }
    },
    {
      "type": "node",
      "id": 6740172890,
      "lat": 30.1685996,
      "lon": -95.4602448,
      "tags": {
        "brand": "OfficeMax",
        "brand:wikidata": "Q7079111",
        "brand:wikipedia": "en:OfficeMax",
        "name": "OfficeMax",
        "shop": "stationery"
      }
    },
    {
      "type": "node",
      "id": 6740172891,
      "lat": 30.1694147,
      "lon": -95.4594148,
      "tags": {
        "brand": "Mattress Firm",
        "brand:wikidata": "Q6791878",
        "brand:wikipedia": "en:Mattress Firm",
        "name": "Mattress Firm",
        "shop": "bed"
      }
    },
    {
      "type": "node",
      "id": 6740172894,
      "lat": 30.1676983,
      "lon": -95.4593176,
      "tags": {
        "brand": "FedEx Office",
        "brand:wikidata": "Q474379",
        "brand:wikipedia": "en:FedEx Office",
        "name": "FedEx Office",
        "shop": "copyshop"
      }
    },
    {
      "type": "node",
      "id": 6740172897,
      "lat": 30.1694924,
      "lon": -95.454748,
      "tags": {
        "brand": "Marshalls",
        "brand:wikidata": "Q15903261",
        "brand:wikipedia": "en:Marshalls",
        "name": "Marshalls",
        "shop": "department_store"
      }
    },
    {
      "type": "node",
      "id": 6740172898,
      "lat": 30.1695063,
      "lon": -95.4544959,
      "tags": {
        "brand": "HomeGoods",
        "brand:wikidata": "Q5887941",
        "brand:wikipedia": "en:HomeGoods",
        "name": "HomeGoods",
        "shop": "houseware"
      }
    },
    {
      "type": "node",
      "id": 6807450630,
      "lat": 30.143912,
      "lon": -95.4675671,
      "tags": {
        "addr:city": "Spring",
        "addr:housenumber": "2369",
        "addr:postcode": "77380",
        "addr:state": "TX",
        "addr:street": "West Settlers Way",
        "brand": "Majestic Lighting Design",
        "email": "majesticlightingdesign@gmail.com",
        "name": "Majestic Lighting Design",
        "opening_hours": "Mo-Sa 08:00-18:00",
        "payment:cash": "yes",
        "payment:cheque": "yes",
        "payment:credit_cards": "yes",
        "phone": "+1-281-886-7660",
        "shop": "lighting",
        "website": "http://www.majesticlightdesign.com"
      }
    },
    {
      "type": "node",
      "id": 6887216005,
      "lat": 30.1696222,
      "lon": -95.45609,
      "tags": {
        "brand": "Academy Sports + Outdoors",
        "brand:wikidata": "Q4671380",
        "brand:wikipedia": "en:Academy Sports + Outdoors",
        "name": "Academy Sports + Outdoors",
        "shop": "sports"
      }
    },
    {
      "type": "node",
      "id": 6894634728,
      "lat": 30.2102736,
      "lon": -95.527743,
      "tags": {
        "brand": "Massage Heights",
        "brand:wikidata": "Q64573956",
        "name": "Massage Heights",
        "shop": "massage"
      }
    },
    {
      "type": "node",
      "id": 6894634729,
      "lat": 30.2107249,
      "lon": -95.5285872,
      "tags": {
        "name": "TGF City Cuts",
        "shop": "hairdresser"
      }
    },
    {
      "type": "node",
      "id": 6894634730,
      "lat": 30.2107622,
      "lon": -95.5286457,
      "tags": {
        "beauty": "nails",
        "name": "Nails of America",
        "shop": "beauty"
      }
    },
    {
      "type": "node",
      "id": 6894634733,
      "lat": 30.2108327,
      "lon": -95.5288028,
      "tags": {
        "brand": "GNC",
        "brand:wikidata": "Q4808595",
        "brand:wikipedia": "en:GNC (store)",
        "name": "GNC",
        "shop": "nutrition_supplements"
      }
    },
    {
      "type": "node",
      "id": 6894648087,
      "lat": 30.2262834,
      "lon": -95.5220926,
      "tags": {
        "name": "Oasis Massage Salon",
        "shop": "massage"
      }
    },
    {
      "type": "node",
      "id": 6894648089,
      "lat": 30.2262378,
      "lon": -95.522239,
      "tags": {
        "name": "On Stage Hair Salon",
        "shop": "hairdresser"
      }
    },
    {
      "type": "node",
      "id": 6894648090,
      "lat": 30.2262729,
      "lon": -95.5223325,
      "tags": {
        "name": "ABM Cabinets Showroom",
        "shop": "kitchen"
      }
    },
    {
      "type": "node",
      "id": 6894648092,
      "lat": 30.2264819,
      "lon": -95.5224931,
      "tags": {
        "beauty": "nails",
        "name": "ShaTiff Nails & Spa",
        "shop": "beauty"
      }
    },
    {
      "type": "node",
      "id": 6894648093,
      "lat": 30.2265574,
      "lon": -95.5225114,
      "tags": {
        "name": "Mantra Juicery",
        "shop": "health_food"
      }
    },
    {
      "type": "node",
      "id": 6896563925,
      "lat": 30.1771595,
      "lon": -95.4758965,
      "tags": {
        "name": "Salon Bugatti",
        "shop": "hairdresser"
      }
    },
    {
      "type": "node",
      "id": 6897064354,
      "lat": 30.1857254,
      "lon": -95.4903665,
      "tags": {
        "description": "Natural and Holistic Pet Food",
        "name": "Hollywood Feed",
        "shop": "pet"
      }
    },
    {
      "type": "node",
      "id": 6897064357,
      "lat": 30.1859273,
      "lon": -95.4904002,
      "tags": {
        "name": "néktər Juice Bar",
        "shop": "health_food"
      }
    },
    {
      "type": "node",
      "id": 6897064361,
      "lat": 30.1862715,
      "lon": -95.4904674,
      "tags": {
        "name": "Amerejuve Medspa",
        "shop": "beauty"
      }
    },
    {
      "type": "node",
      "id": 6897064362,
      "lat": 30.1863342,
      "lon": -95.4904833,
      "tags": {
        "name": "Gigi's Cupcakes",
        "shop": "pastry"
      }
    },
    {
      "type": "node",
      "id": 6897070276,
      "lat": 30.2282572,
      "lon": -95.5088529,
      "tags": {
        "addr:housenumber": "9420",
        "addr:street": "College Park Drive",
        "addr:unit": "150",
        "brand": "Tide Cleaners",
        "brand:wikidata": "Q66048841",
        "name": "Tide Cleaners",
        "shop": "dry_cleaning"
      }
    },
    {
      "type": "node",
      "id": 6897070278,
      "lat": 30.2280921,
      "lon": -95.5088265,
      "tags": {
        "name": "Armstrong McCall",
        "shop": "hairdresser_supply"
      }
    },
    {
      "type": "node",
      "id": 6897070280,
      "lat": 30.2279551,
      "lon": -95.5088123,
      "tags": {
        "beauty": "nails",
        "name": "Tweez Nailz",
        "shop": "beauty"
      }
    },
    {
      "type": "node",
      "id": 6897070283,
      "lat": 30.227704,
      "lon": -95.5087818,
      "tags": {
        "name": "The Woodlands Hair Elite",
        "shop": "hairdresser"
      }
    },
    {
      "type": "node",
      "id": 6897070284,
      "lat": 30.2276091,
      "lon": -95.5087655,
      "tags": {
        "name": "Fishburn Violin Shop",
        "shop": "musical_instrument"
      }
    },
    {
      "type": "node",
      "id": 6901360368,
      "lat": 30.1929103,
      "lon": -95.5882119,
      "tags": {
        "name": "Caffé Di Fiore",
        "shop": "coffee"
      }
    },
    {
      "type": "node",
      "id": 6901360371,
      "lat": 30.1930253,
      "lon": -95.5885036,
      "tags": {
        "beauty": "nails",
        "name": "Phenomenails",
        "shop": "beauty"
      }
    },
    {
      "type": "node",
      "id": 6901360373,
      "lat": 30.1937488,
      "lon": -95.5888301,
      "tags": {
        "name": "J. Thompson Salons",
        "shop": "hairdresser"
      }
    },
    {
      "type": "node",
      "id": 6901360382,
      "lat": 30.1951712,
      "lon": -95.5875861,
      "tags": {
        "name": "Hummingbird Tearoom & Bakery",
        "shop": "tea"
      }
    },
    {
      "type": "node",
      "id": 6966482622,
      "lat": 30.1641978,
      "lon": -95.4645373,
      "tags": {
        "addr:city": "The Woodlands",
        "addr:housenumber": "9595",
        "addr:postcode": "77380",
        "addr:state": "TX",
        "addr:street": "Six Pines Drive",
        "addr:unit": "Suite 1040",
        "brand": "Tesla",
        "brand:wikidata": "Q478214",
        "brand:wikipedia": "en:Tesla, Inc.",
        "name": "Tesla",
        "opening_hours": "Su 12:00-18:00; Mo-Sa10:00-21:00",
        "shop": "car"
      }
    },
    {
      "type": "node",
      "id": 7041270972,
      "lat": 30.2098964,
      "lon": -95.5269917,
      "tags": {
        "addr:housenumber": "8000",
        "addr:street": "Research Forest Drive",
        "addr:unit": "135",
        "brand": "Tide Cleaners",
        "brand:wikidata": "Q66048841",
        "name": "Tide Cleaners",
        "shop": "dry_cleaning"
      }
    },
    {
      "type": "node",
      "id": 7041270973,
      "lat": 30.1804468,
      "lon": -95.5393784,
      "tags": {
        "addr:housenumber": "6777",
        "addr:street": "Woodlands Parkway",
        "addr:unit": "306",
        "brand": "Tide Cleaners",
        "brand:wikidata": "Q66048841",
        "fixme": "location approximated",
        "name": "Tide Cleaners",
        "shop": "dry_cleaning"
      }
    },
    {
      "type": "node",
      "id": 7041289696,
      "lat": 30.1462654,
      "lon": -95.5494277,
      "tags": {
        "addr:housenumber": "8576",
        "addr:street": "Creekside Forest Drive",
        "addr:unit": "A100",
        "brand": "Tide Cleaners",
        "brand:wikidata": "Q66048841",
        "fixme": "location approximate--building not yet visible in imagery",
        "name": "Tide Cleaners",
        "shop": "dry_cleaning"
      }
    },
    {
      "type": "node",
      "id": 7141888901,
      "lat": 30.1690054,
      "lon": -95.4717439,
      "tags": {
        "addr:city": "The Woodlands",
        "addr:housenumber": "2025",
        "addr:postcode": "77380",
        "addr:state": "TX",
        "addr:street": "Hughes Landing Boulevard",
        "addr:unit": "900",
        "name": "Norton Ditto",
        "shop": "clothes"
      }
    },
    {
      "type": "node",
      "id": 7787362097,
      "lat": 30.1583542,
      "lon": -95.4728115,
      "tags": {
        "addr:housenumber": "207",
        "addr:street": "East Shore Drive",
        "addr:unit": "250",
        "name": "Brickhouse Bridal",
        "opening_hours": "Mo-Fr 10:00-18:00; Sa 10:00-16:00",
        "phone": "+1 281 681 3430",
        "shop": "boutique",
        "website": "https://brickhousebridal.com"
      }
    },
    {
      "type": "way",
      "id": 119498838,
      "nodes": [
        1342551443,
        1342550617,
        1342551562,
        1342550369,
        1342551388,
        1342550007,
        1342550710,
        1342551468,
        1342550122,
        1342550991,
        1342551684,
        1342550552,
        1342551524,
        1342550161,
        1342551124,
        1342551606,
        1342550226,
        1342551274,
        1342551443
      ],
      "tags": {
        "addr:city": "The Woodlands",
        "addr:country": "US",
        "addr:housenumber": "3040",
        "addr:postcode": "77384",
        "addr:state": "TX",
        "addr:street": "College Park Drive",
        "brand": "Walmart",
        "brand:wikidata": "Q483551",
        "brand:wikipedia": "en:Walmart",
        "building": "yes",
        "name": "Walmart Supercenter",
        "opening_hours": "24/7",
        "operator": "Walmart",
        "phone": "+1-936-321-9922",
        "ref:walmart": "3213",
        "shop": "supermarket",
        "website": "https://www.walmart.com/store/3213/the-woodlands-tx/whats-new"
      }
    },
    {
      "type": "way",
      "id": 119498863,
      "nodes": [
        1342551378,
        1342550491,
        1342551625,
        1342550256,
        1342551378
      ],
      "tags": {
        "addr:city": "The Woodlands",
        "addr:housenumber": "3000",
        "addr:postcode": "77384",
        "addr:state": "TX",
        "addr:street": "College Park Drive",
        "building": "yes",
        "name": "Timewise Food Store",
        "shop": "convenience"
      }
    },
    {
      "type": "way",
      "id": 119498888,
      "nodes": [
        1020505396,
        1342550018,
        1342550724,
        1342551609,
        1342550126,
        1342550998,
        1342551689,
        1342550370,
        1342550207,
        1342551232,
        1342551785,
        1342550503,
        1342551445,
        1342550634,
        1342551567,
        1342550200,
        1020505396
      ],
      "tags": {
        "addr:city": "Conroe",
        "addr:housenumber": "3052",
        "addr:postcode": "77384",
        "addr:state": "TX",
        "addr:street": "College Park Drive",
        "brand": "Lowe's",
        "brand:wikidata": "Q1373493",
        "brand:wikipedia": "en:Lowe's",
        "building": "yes",
        "name": "Lowe's",
        "operator": "Lowes",
        "shop": "doityourself"
      }
    },
    {
      "type": "way",
      "id": 120108995,
      "nodes": [
        1347493096,
        1347493408,
        1347493188,
        1347493118,
        1347493166,
        1367380558,
        1347492896,
        1347493008,
        1347492901,
        1347493413,
        1347492992,
        1347493096
      ],
      "tags": {
        "addr:city": "The Woodlands",
        "addr:housenumber": "1100",
        "addr:state": "TX",
        "addr:street": "Lake Woodlands Drive",
        "brand": "Target",
        "brand:wikidata": "Q1046951",
        "brand:wikipedia": "en:Target Corporation",
        "building": "yes",
        "name": "Target",
        "opening_hours": "24/7",
        "shop": "department_store"
      }
    },
    {
      "type": "way",
      "id": 120110135,
      "nodes": [
        1347502641,
        1347502565,
        1347502344,
        1347502648,
        1347502607,
        1347502416,
        1347502652,
        1347502685,
        1347502508,
        1347502641
      ],
      "tags": {
        "building": "yes",
        "name": "BMW of Houston North",
        "shop": "car"
      }
    },
    {
      "type": "way",
      "id": 121502593,
      "nodes": [
        1360004068,
        1360004065,
        1360004063,
        1360004064,
        7123890727,
        7123890726,
        1360004068
      ],
      "tags": {
        "brand": "Sears Auto Center",
        "brand:wikidata": "Q6499202",
        "brand:wikipedia": "en:Sears",
        "building": "yes",
        "name": "Sears Auto Center",
        "shop": "car_repair"
      }
    },
    {
      "type": "way",
      "id": 121729332,
      "nodes": [
        1361776205,
        1361775535,
        1361775539,
        1361775369,
        1361775366,
        1361775063,
        1361775031,
        1361775034,
        1361775076,
        1361775149,
        1361775183,
        1361775306,
        1361775282,
        1361775388,
        1361775376,
        1361775991,
        1361775972,
        1361776166,
        1361776205
      ],
      "tags": {
        "addr:city": "The Woodlands, TX",
        "addr:housenumber": "9595",
        "addr:postcode": "77380",
        "addr:street": "Six Pines Drive",
        "brand": "H-E-B",
        "brand:wikidata": "Q830621",
        "brand:wikipedia": "en:H-E-B",
        "building": "yes",
        "name": "H-E-B",
        "opening_hours": "06:00-24:00",
        "operator": "H-E-B",
        "phone": "+1-281-292-2080",
        "shop": "supermarket"
      }
    },
    {
      "type": "way",
      "id": 121729352,
      "nodes": [
        1361776918,
        2642610853,
        1361776852,
        2642610810,
        1361776924,
        1361776921,
        6966389354,
        2642610871,
        1361776763,
        2642610847,
        2642610801,
        2642610856,
        1361776689,
        2642610864,
        2642610857,
        2642610818,
        2642610858,
        2642610812,
        2642610814,
        2642610838,
        2642610799,
        2642610875,
        2642610805,
        2642610842,
        2642610797,
        2642610798,
        1361776690,
        1361776932,
        2642610809,
        1361776928,
        1361776696,
        2642610859,
        2642610866,
        1361776700,
        1361776840,
        1361776846,
        1844395679,
        1844395675,
        1844395686,
        1844395649,
        1844395641,
        1844395723,
        1844395731,
        1844395672,
        1361775927,
        1361775920,
        1361776141,
        1361776144,
        1361776060,
        2642610811,
        1361776077,
        1361776151,
        2642610832,
        5700531059,
        5700531057,
        1361776148,
        1361776055,
        2642610846,
        1361776050,
        2642610804,
        1361775887,
        1361775844,
        1361775568,
        1361775592,
        1361775180,
        1361775152,
        1361775005,
        1361775020,
        1361775634,
        1361775670,
        1361775832,
        1361775840,
        1361775769,
        1361775808,
        1361775861,
        1361775872,
        1361775776,
        1361775781,
        1361775365,
        1361775359,
        1361775144,
        1361775098,
        1361775051,
        1361775024,
        1361775026,
        1361775055,
        1361775105,
        1361775396,
        1361775391,
        1361775959,
        1361775930,
        1361776182,
        1361776292,
        2642610837,
        1361775615,
        1361775824,
        2642610860,
        1361776352,
        1361776396,
        1361776332,
        2642610844,
        1361776387,
        1361776402,
        1361776510,
        2642610829,
        2642610824,
        1361776754,
        1361776918
      ],
      "tags": {
        "addr:housenumber": "1201",
        "addr:street": "Lake Woodlands Drive",
        "building": "retail",
        "building:levels": "2",
        "layer": "1",
        "name": "The Woodlands Mall",
        "opening_hours": "Mo-Sa 10:00-21:00; Su 12:00-18:00",
        "shop": "mall"
      }
    },
    {
      "type": "way",
      "id": 122321794,
      "nodes": [
        1367380557,
        2970174806,
        1367380556,
        1367380590,
        1367380592,
        1367380594,
        1367380596,
        1367380557
      ],
      "tags": {
        "addr:housenumber": "1560",
        "addr:street": "Lake Woodlands Drive",
        "brand": "Bed Bath & Beyond",
        "brand:wikidata": "Q813782",
        "brand:wikipedia": "en:Bed Bath & Beyond",
        "building": "yes",
        "name": "Bed Bath & Beyond",
        "shop": "houseware"
      }
    },
    {
      "type": "way",
      "id": 122321796,
      "nodes": [
        1367380552,
        1367380557,
        1367380589,
        1367380588,
        1367380578,
        1367380582,
        1367380574,
        1367380573,
        1367380552
      ],
      "tags": {
        "addr:housenumber": "1550",
        "addr:street": "Lake Woodlands Drive",
        "brand": "Best Buy",
        "brand:wikidata": "Q533415",
        "brand:wikipedia": "en:Best Buy",
        "building": "yes",
        "name": "Best Buy",
        "opening_hours": "Mo-Th 09:00-21:00, Fr,Sa 09:00-22:00, Su 10:00-20:00",
        "shop": "electronics"
      }
    },
    {
      "type": "way",
      "id": 122321798,
      "nodes": [
        1367380576,
        1367380548,
        1367380550,
        1367380587,
        1367380576
      ],
      "tags": {
        "building": "yes",
        "shop": "vacant"
      }
    },
    {
      "type": "way",
      "id": 122321799,
      "nodes": [
        1367380527,
        1367380492,
        1367380493,
        2970174812,
        1367380529,
        2970174792,
        1367380527
      ],
      "tags": {
        "brand": "World Market",
        "brand:wikidata": "Q5174750",
        "brand:wikipedia": "en:Cost Plus World Market",
        "building": "yes",
        "name": "World Market",
        "official_name": "Cost Plus World Market",
        "shop": "interior_decoration"
      }
    },
    {
      "type": "way",
      "id": 125263821,
      "nodes": [
        1391829588,
        1391829522,
        1391829528,
        1391829580,
        1391829596,
        1391829645,
        1391829576,
        1391829695,
        1391829653,
        1391829661,
        1391829588
      ],
      "tags": {
        "addr:city": "Spring",
        "addr:housenumber": "2250",
        "addr:postcode": "77380",
        "addr:state": "TX",
        "addr:street": "Buckthorne Place",
        "building": "yes",
        "name": "Randalls",
        "phone": "+1-281-367-5734",
        "ref": "2673",
        "shop": "supermarket",
        "website": "https://local.randalls.com/tx/spring-2673.html"
      }
    },
    {
      "type": "way",
      "id": 129592382,
      "nodes": [
        1429494023,
        1429494039,
        1429494010,
        1429494013,
        1429494024,
        1429494041,
        1429494006,
        6884025398,
        6884025395,
        1429494021,
        1429494037,
        1429494022,
        1429494042,
        1429494012,
        1429494040,
        1429494017,
        1429494031,
        1429494043,
        1429494038,
        1429494027,
        1429494029,
        1429494023
      ],
      "tags": {
        "addr:city": "The Woodlands",
        "addr:housename": "100",
        "addr:housenumber": "9420",
        "addr:postcode": "77384",
        "addr:state": "TX",
        "addr:street": "College Park Drive",
        "building": "yes",
        "disused:building": "retail",
        "shop": "supermarket"
      }
    },
    {
      "type": "way",
      "id": 137868820,
      "nodes": [
        1511818890,
        1511819308,
        1511819293,
        1511818772,
        1511818717,
        1511818822,
        1511818884,
        1511818958,
        1511818672,
        1511818419,
        1511819436,
        1511818368,
        1511819161,
        1511819146,
        1511818830,
        1511818892,
        1511818903,
        1511819070,
        1511819344,
        1511818675,
        1511819266,
        1511818810,
        1511819128,
        1511819156,
        1511819021,
        1511818804,
        1511818682,
        1511819287,
        1511818906,
        1511818413,
        1511818890
      ],
      "tags": {
        "addr:city": "Spring",
        "addr:country": "US",
        "addr:full": "10001 Woodlands Pkwy",
        "addr:housenumber": "10001",
        "addr:postcode": "77382",
        "addr:state": "TX",
        "addr:street": "Woodlands Parkway",
        "building": "retail",
        "name": "Walmart Supercenter",
        "opening_hours": "24/7",
        "operator": "Walmart",
        "phone": "+1-281-419-0162",
        "ref:walmart": "3390",
        "shop": "supermarket",
        "website": "https://www.walmart.com/store/3390/woodlands-tx/whats-new"
      }
    },
    {
      "type": "way",
      "id": 173069531,
      "nodes": [
        1838948539,
        1361776176,
        1361776089,
        1361776092,
        1361775914,
        1361775905,
        1361775820,
        1838948564,
        1838948539
      ],
      "tags": {
        "brand": "Tommy Bahama",
        "brand:wikidata": "Q3531299",
        "brand:wikipedia": "en:Tommy Bahama",
        "building": "yes",
        "name": "Tommy Bahama",
        "shop": "clothes"
      }
    },
    {
      "type": "way",
      "id": 205397198,
      "nodes": [
        2153674632,
        2153674634,
        2153674695,
        2153674680,
        2153674632
      ],
      "tags": {
        "brand": "Shell",
        "brand:wikidata": "Q154950",
        "brand:wikipedia": "en:Royal Dutch Shell",
        "building": "yes",
        "name": "Shell",
        "operator": "Shell",
        "shop": "convenience"
      }
    },
    {
      "type": "way",
      "id": 297235688,
      "nodes": [
        5832500502,
        3010912728,
        3010912725,
        5832500280,
        5832500511,
        5832500207,
        5832500263,
        5832500235,
        5832500281,
        5832500256,
        5832500257,
        3010912726,
        3010912727,
        5832500505,
        5832500283,
        5832500495,
        5832500220,
        5832500258,
        5832500491,
        5832500270,
        5832500499,
        5832500486,
        5832500254,
        5832500253,
        5832500273,
        5832500487,
        5832500502
      ],
      "tags": {
        "addr:city": "Tomball",
        "addr:housenumber": "26500",
        "addr:postcode": "77375",
        "addr:state": "TX",
        "addr:street": "Kuykendahl Road",
        "brand": "H-E-B",
        "brand:wikidata": "Q830621",
        "brand:wikipedia": "en:H-E-B",
        "building": "yes",
        "name": "H-E-B",
        "phone": "+1-281-205-6500",
        "shop": "supermarket"
      }
    },
    {
      "type": "way",
      "id": 314359226,
      "nodes": [
        3204063834,
        4311915071,
        3204063835,
        4311915076,
        3204063836,
        4311915077,
        4311915078,
        4311915079,
        3204063837,
        3204063834
      ],
      "tags": {
        "addr:city": "The Woodlands",
        "addr:housenumber": "6700",
        "addr:postcode": "77382",
        "addr:state": "TX",
        "addr:street": "Woodlands Parkway",
        "area": "yes",
        "brand": "Kroger",
        "brand:wikidata": "Q153417",
        "brand:wikipedia": "en:Kroger",
        "building": "yes",
        "name": "Kroger",
        "phone": "+1 281-296-0186",
        "shop": "supermarket"
      }
    },
    {
      "type": "way",
      "id": 314359671,
      "nodes": [
        3204069845,
        3204069846,
        6928641261,
        6928641262,
        3204069847,
        6964740512,
        6964740499,
        3204069848,
        6928641263,
        6928641264,
        6928641265,
        6928641266,
        6928641267,
        6928641268,
        3204069845
      ],
      "tags": {
        "addr:city": "The Woodlands",
        "addr:housenumber": "8000",
        "addr:postcode": "77382",
        "addr:state": "TX",
        "addr:street": "Research Forest Drive",
        "brand": "Kroger",
        "brand:wikidata": "Q153417",
        "brand:wikipedia": "en:Kroger",
        "building": "yes",
        "name": "Kroger",
        "phone": "+1-281-419-1116",
        "shop": "supermarket"
      }
    },
    {
      "type": "way",
      "id": 435067144,
      "nodes": [
        4330072758,
        4330072759,
        4330072760,
        4330072761,
        4330072762,
        4330072758
      ],
      "tags": {
        "addr:city": "The Woodlands",
        "addr:housenumber": "1925",
        "addr:postcode": "77380",
        "addr:state": "TX",
        "addr:street": "Hughes Landing Boulevard",
        "addr:unit": "#100",
        "brand": "Whole Foods Market",
        "brand:wikidata": "Q1809448",
        "brand:wikipedia": "en:Whole Foods Market",
        "building": "yes",
        "name": "Whole Foods Market",
        "shop": "supermarket"
      }
    },
    {
      "type": "way",
      "id": 503250866,
      "nodes": [
        4935951633,
        4935951669,
        4935951698,
        4935951592,
        4935951633
      ],
      "tags": {
        "building": "yes",
        "shop": "convenience",
        "source": "Bing"
      }
    },
    {
      "type": "way",
      "id": 521206580,
      "nodes": [
        5078657165,
        5078657563,
        5078657778,
        5078657304,
        5078657165
      ],
      "tags": {
        "addr:city": "Tomball",
        "addr:housenumber": "26400",
        "addr:state": "TX",
        "addr:street": "Kuykendahl Road",
        "building": "yes",
        "name": "Salon Hawthorne",
        "shop": "hairdresser",
        "source": "Bing"
      }
    },
    {
      "type": "way",
      "id": 521234497,
      "nodes": [
        5078866896,
        5078866815,
        5078866867,
        5078866727,
        5078866896
      ],
      "tags": {
        "building": "yes",
        "name": "Timewise",
        "shop": "convenience",
        "source": "Bing"
      }
    },
    {
      "type": "way",
      "id": 527155593,
      "nodes": [
        3493885393,
        5125447920,
        5125447921,
        5125447922,
        5125447923,
        5125447924,
        5125447925,
        5125447926,
        5125447927,
        5125447928,
        5125447929,
        5125447930,
        5125447931,
        3493885393
      ],
      "tags": {
        "addr:city": "The Woodlands",
        "addr:housenumber": "8185",
        "addr:postcode": "77385",
        "addr:state": "TX",
        "addr:street": "SH 242",
        "brand": "Costco",
        "brand:wikidata": "Q715583",
        "brand:wikipedia": "en:Costco",
        "building": "yes",
        "name": "Costco",
        "opening_hours": "Mo-Fr 10:00-20:30; Sa 09:30-18:00; Su 10:00-18:00",
        "operator": "Costco",
        "phone": "+1 936 703 2295",
        "shop": "wholesale"
      }
    },
    {
      "type": "way",
      "id": 551994821,
      "nodes": [
        5330111523,
        5330111524,
        5330111525,
        5330111526,
        5330111527,
        5330111528,
        5330111529,
        5330111530,
        5330111531,
        5330111532,
        5330111533,
        5330111534,
        5330111535,
        5330111536,
        5330111537,
        5330111538,
        5330111539,
        5330111540,
        5330111541,
        5330111542,
        5330111543,
        5330111544,
        5330111545,
        5330111546,
        5330111547,
        5330111548,
        5330111523
      ],
      "tags": {
        "addr:city": "The Woodlands",
        "addr:housenumber": "3601",
        "addr:postcode": "77384",
        "addr:state": "TX",
        "addr:street": "Farm to Market Road 1488",
        "brand": "H-E-B",
        "brand:wikidata": "Q830621",
        "brand:wikipedia": "en:H-E-B",
        "building": "yes",
        "building:levels": "1",
        "name": "H-E-B",
        "opening_hours": "Mo-Su 06:00-23:00",
        "phone": "+1-936-271-2730",
        "shop": "supermarket"
      }
    },
    {
      "type": "way",
      "id": 552013908,
      "nodes": [
        5330295978,
        5330295979,
        5330295980,
        5330295981,
        5330295982,
        5330295983,
        5330295984,
        5330295985,
        5330295986,
        5330295987,
        5330295988,
        5330295989,
        5330295990,
        5330295991,
        5330295992,
        5330295978
      ],
      "tags": {
        "building": "yes",
        "shop": "chemist"
      }
    },
    {
      "type": "way",
      "id": 702330874,
      "nodes": [
        6595408033,
        6595408034,
        6595408035,
        6595408036,
        6595408037,
        6595408033
      ],
      "tags": {
        "brand": "Walgreens",
        "brand:wikidata": "Q1591889",
        "brand:wikipedia": "en:Walgreens",
        "building": "yes",
        "name": "Walgreens",
        "shop": "chemist"
      }
    },
    {
      "type": "way",
      "id": 735336042,
      "nodes": [
        6887210687,
        6887210688,
        6887210689,
        6887210690,
        6887210687
      ],
      "tags": {
        "building": "yes",
        "name": "Timewise",
        "shop": "convenience"
      }
    },
    {
      "type": "way",
      "id": 736414522,
      "nodes": [
        6894634706,
        6894634707,
        6894634708,
        6894634709,
        6894634706
      ],
      "tags": {
        "brand": "Shell",
        "brand:wikidata": "Q154950",
        "brand:wikipedia": "en:Royal Dutch Shell",
        "building": "yes",
        "name": "Shell",
        "operator": "Shell",
        "shop": "convenience"
      }
    },
    {
      "type": "way",
      "id": 736414525,
      "nodes": [
        6894634719,
        6894634720,
        6894634721,
        6894634722,
        6894634719
      ],
      "tags": {
        "building": "yes",
        "name": "Take 5",
        "service:vehicle:oil_change": "yes",
        "shop": "car_repair"
      }
    },
    {
      "type": "way",
      "id": 737160919,
      "nodes": [
        6901285296,
        6901285297,
        6901285298,
        6901285299,
        6901285296
      ],
      "tags": {
        "building": "yes",
        "name": "CubeSmart",
        "shop": "storage_rental"
      }
    },
    {
      "type": "way",
      "id": 737160920,
      "nodes": [
        6901285300,
        6901285301,
        6901285302,
        6901285303,
        6901285300
      ],
      "tags": {
        "building": "yes",
        "operator": "CubeSmart",
        "shop": "storage_rental"
      }
    },
    {
      "type": "node",
      "id": 3010912725,
      "lat": 30.1448883,
      "lon": -95.550014
    },
    {
      "type": "node",
      "id": 3010912726,
      "lat": 30.1444766,
      "lon": -95.5488349
    },
    {
      "type": "node",
      "id": 3010912727,
      "lat": 30.144036,
      "lon": -95.5489098
    },
    {
      "type": "node",
      "id": 3010912728,
      "lat": 30.1441807,
      "lon": -95.5501358
    },
    {
      "type": "node",
      "id": 5078657165,
      "lat": 30.143718,
      "lon": -95.5482487
    },
    {
      "type": "node",
      "id": 5078657304,
      "lat": 30.1435569,
      "lon": -95.5482773
    },
    {
      "type": "node",
      "id": 5078657563,
      "lat": 30.143752,
      "lon": -95.5485053
    },
    {
      "type": "node",
      "id": 5078657778,
      "lat": 30.143591,
      "lon": -95.5485339
    },
    {
      "type": "node",
      "id": 5832500207,
      "lat": 30.1449202,
      "lon": -95.5496785
    },
    {
      "type": "node",
      "id": 5832500220,
      "lat": 30.1439414,
      "lon": -95.5490013
    },
    {
      "type": "node",
      "id": 5832500235,
      "lat": 30.1449121,
      "lon": -95.5493996
    },
    {
      "type": "node",
      "id": 5832500253,
      "lat": 30.1441142,
      "lon": -95.5497523
    },
    {
      "type": "node",
      "id": 5832500254,
      "lat": 30.1440956,
      "lon": -95.5496303
    },
    {
      "type": "node",
      "id": 5832500256,
      "lat": 30.1447544,
      "lon": -95.5489383
    },
    {
      "type": "node",
      "id": 5832500257,
      "lat": 30.1444969,
      "lon": -95.5489771
    },
    {
      "type": "node",
      "id": 5832500258,
      "lat": 30.1439623,
      "lon": -95.5491582
    },
    {
      "type": "node",
      "id": 5832500263,
      "lat": 30.1449492,
      "lon": -95.5496705
    },
    {
      "type": "node",
      "id": 5832500270,
      "lat": 30.1439762,
      "lon": -95.5493956
    },
    {
      "type": "node",
      "id": 5832500273,
      "lat": 30.1440713,
      "lon": -95.549759
    },
    {
      "type": "node",
      "id": 5832500280,
      "lat": 30.144865,
      "lon": -95.5498387
    },
    {
      "type": "node",
      "id": 5832500281,
      "lat": 30.1448112,
      "lon": -95.5493996
    },
    {
      "type": "node",
      "id": 5832500283,
      "lat": 30.1439634,
      "lon": -95.5489597
    },
    {
      "type": "node",
      "id": 5832500486,
      "lat": 30.1440353,
      "lon": -95.5496396
    },
    {
      "type": "node",
      "id": 5832500487,
      "lat": 30.1440956,
      "lon": -95.5499588
    },
    {
      "type": "node",
      "id": 5832500491,
      "lat": 30.1439472,
      "lon": -95.5491609
    },
    {
      "type": "node",
      "id": 5832500495,
      "lat": 30.1439669,
      "lon": -95.5489932
    },
    {
      "type": "node",
      "id": 5832500499,
      "lat": 30.1440017,
      "lon": -95.5493889
    },
    {
      "type": "node",
      "id": 5832500502,
      "lat": 30.1441589,
      "lon": -95.5499509
    },
    {
      "type": "node",
      "id": 5832500505,
      "lat": 30.1440404,
      "lon": -95.5489476
    },
    {
      "type": "node",
      "id": 5832500511,
      "lat": 30.1449422,
      "lon": -95.5498247
    },
    {
      "type": "node",
      "id": 1511818368,
      "lat": 30.1904527,
      "lon": -95.5891335
    },
    {
      "type": "node",
      "id": 1511818413,
      "lat": 30.1894142,
      "lon": -95.5888047
    },
    {
      "type": "node",
      "id": 1511818419,
      "lat": 30.1904019,
      "lon": -95.5892794
    },
    {
      "type": "node",
      "id": 1511818672,
      "lat": 30.1903044,
      "lon": -95.5892837
    },
    {
      "type": "node",
      "id": 1511818675,
      "lat": 30.1904272,
      "lon": -95.587779
    },
    {
      "type": "node",
      "id": 1511818682,
      "lat": 30.1894164,
      "lon": -95.5883342
    },
    {
      "type": "node",
      "id": 1511818717,
      "lat": 30.1899798,
      "lon": -95.5892864
    },
    {
      "type": "node",
      "id": 1511818772,
      "lat": 30.1899775,
      "lon": -95.5893374
    },
    {
      "type": "node",
      "id": 1511818804,
      "lat": 30.1894164,
      "lon": -95.5875698
    },
    {
      "type": "node",
      "id": 1511818810,
      "lat": 30.1902881,
      "lon": -95.5872479
    },
    {
      "type": "node",
      "id": 1511818822,
      "lat": 30.190227,
      "lon": -95.5892809
    },
    {
      "type": "node",
      "id": 1511818830,
      "lat": 30.1904087,
      "lon": -95.588294
    },
    {
      "type": "node",
      "id": 1511818884,
      "lat": 30.1902258,
      "lon": -95.5893563
    },
    {
      "type": "node",
      "id": 1511818890,
      "lat": 30.1894118,
      "lon": -95.5892783
    },
    {
      "type": "node",
      "id": 1511818892,
      "lat": 30.1904504,
      "lon": -95.5882886
    },
    {
      "type": "node",
      "id": 1511818903,
      "lat": 30.1904575,
      "lon": -95.5879195
    },
    {
      "type": "node",
      "id": 1511818906,
      "lat": 30.1892727,
      "lon": -95.5888009
    },
    {
      "type": "node",
      "id": 1511818958,
      "lat": 30.1903067,
      "lon": -95.5893561
    },
    {
      "type": "node",
      "id": 1511819021,
      "lat": 30.1893144,
      "lon": -95.5875671
    },
    {
      "type": "node",
      "id": 1511819070,
      "lat": 30.1902997,
      "lon": -95.5879131
    },
    {
      "type": "node",
      "id": 1511819128,
      "lat": 30.1902789,
      "lon": -95.5873847
    },
    {
      "type": "node",
      "id": 1511819146,
      "lat": 30.1904017,
      "lon": -95.588648
    },
    {
      "type": "node",
      "id": 1511819156,
      "lat": 30.1893144,
      "lon": -95.5873847
    },
    {
      "type": "node",
      "id": 1511819161,
      "lat": 30.1904527,
      "lon": -95.5886534
    },
    {
      "type": "node",
      "id": 1511819266,
      "lat": 30.1904296,
      "lon": -95.5872452
    },
    {
      "type": "node",
      "id": 1511819287,
      "lat": 30.189268,
      "lon": -95.5883369
    },
    {
      "type": "node",
      "id": 1511819293,
      "lat": 30.1895254,
      "lon": -95.5893293
    },
    {
      "type": "node",
      "id": 1511819308,
      "lat": 30.18953,
      "lon": -95.5892783
    },
    {
      "type": "node",
      "id": 1511819344,
      "lat": 30.1902975,
      "lon": -95.587772
    },
    {
      "type": "node",
      "id": 1511819436,
      "lat": 30.1904042,
      "lon": -95.5891346
    },
    {
      "type": "node",
      "id": 4935951592,
      "lat": 30.1932461,
      "lon": -95.5888015
    },
    {
      "type": "node",
      "id": 4935951633,
      "lat": 30.1932943,
      "lon": -95.5889213
    },
    {
      "type": "node",
      "id": 4935951669,
      "lat": 30.1930558,
      "lon": -95.5890499
    },
    {
      "type": "node",
      "id": 4935951698,
      "lat": 30.1930076,
      "lon": -95.5889302
    },
    {
      "type": "node",
      "id": 3204063836,
      "lat": 30.1822338,
      "lon": -95.5352906
    },
    {
      "type": "node",
      "id": 4311915076,
      "lat": 30.1826055,
      "lon": -95.5360237
    },
    {
      "type": "node",
      "id": 4311915077,
      "lat": 30.182275,
      "lon": -95.5352627
    },
    {
      "type": "node",
      "id": 4311915078,
      "lat": 30.1822431,
      "lon": -95.5351997
    },
    {
      "type": "node",
      "id": 4311915079,
      "lat": 30.1824188,
      "lon": -95.535081
    },
    {
      "type": "node",
      "id": 3204063834,
      "lat": 30.1831422,
      "lon": -95.5356868
    },
    {
      "type": "node",
      "id": 3204063835,
      "lat": 30.1826399,
      "lon": -95.5360136
    },
    {
      "type": "node",
      "id": 3204063837,
      "lat": 30.1827451,
      "lon": -95.5348689
    },
    {
      "type": "node",
      "id": 4311915071,
      "lat": 30.1828504,
      "lon": -95.5358762
    },
    {
      "type": "node",
      "id": 6901285296,
      "lat": 30.2080358,
      "lon": -95.5740059
    },
    {
      "type": "node",
      "id": 6901285297,
      "lat": 30.207668,
      "lon": -95.5737154
    },
    {
      "type": "node",
      "id": 6901285298,
      "lat": 30.2080591,
      "lon": -95.5730525
    },
    {
      "type": "node",
      "id": 6901285299,
      "lat": 30.2084268,
      "lon": -95.5733428
    },
    {
      "type": "node",
      "id": 6901285300,
      "lat": 30.2085159,
      "lon": -95.5731892
    },
    {
      "type": "node",
      "id": 6901285301,
      "lat": 30.2081249,
      "lon": -95.5728759
    },
    {
      "type": "node",
      "id": 6901285302,
      "lat": 30.2080709,
      "lon": -95.5729661
    },
    {
      "type": "node",
      "id": 6901285303,
      "lat": 30.2084618,
      "lon": -95.5732796
    },
    {
      "type": "node",
      "id": 6894634706,
      "lat": 30.2083079,
      "lon": -95.5262238
    },
    {
      "type": "node",
      "id": 6894634707,
      "lat": 30.2081013,
      "lon": -95.5263511
    },
    {
      "type": "node",
      "id": 6894634708,
      "lat": 30.2080429,
      "lon": -95.5262241
    },
    {
      "type": "node",
      "id": 6894634709,
      "lat": 30.2082495,
      "lon": -95.5260969
    },
    {
      "type": "node",
      "id": 6894634719,
      "lat": 30.2087714,
      "lon": -95.5270907
    },
    {
      "type": "node",
      "id": 6894634720,
      "lat": 30.2087042,
      "lon": -95.5271328
    },
    {
      "type": "node",
      "id": 6894634721,
      "lat": 30.2086148,
      "lon": -95.5269417
    },
    {
      "type": "node",
      "id": 6894634722,
      "lat": 30.208682,
      "lon": -95.5268997
    },
    {
      "type": "node",
      "id": 3204069845,
      "lat": 30.2111855,
      "lon": -95.5282128
    },
    {
      "type": "node",
      "id": 3204069846,
      "lat": 30.2105881,
      "lon": -95.5286101
    },
    {
      "type": "node",
      "id": 3204069847,
      "lat": 30.2102459,
      "lon": -95.5277857
    },
    {
      "type": "node",
      "id": 3204069848,
      "lat": 30.2107959,
      "lon": -95.5274199
    },
    {
      "type": "node",
      "id": 6928641261,
      "lat": 30.2103609,
      "lon": -95.5281525
    },
    {
      "type": "node",
      "id": 6928641262,
      "lat": 30.2104114,
      "lon": -95.5281189
    },
    {
      "type": "node",
      "id": 6928641263,
      "lat": 30.2109633,
      "lon": -95.527757
    },
    {
      "type": "node",
      "id": 6928641264,
      "lat": 30.2110164,
      "lon": -95.5277217
    },
    {
      "type": "node",
      "id": 6928641265,
      "lat": 30.2110889,
      "lon": -95.5278677
    },
    {
      "type": "node",
      "id": 6928641266,
      "lat": 30.2110537,
      "lon": -95.5278912
    },
    {
      "type": "node",
      "id": 6928641267,
      "lat": 30.2110804,
      "lon": -95.5279449
    },
    {
      "type": "node",
      "id": 6928641268,
      "lat": 30.2110593,
      "lon": -95.5279588
    },
    {
      "type": "node",
      "id": 6964740499,
      "lat": 30.2105371,
      "lon": -95.527592
    },
    {
      "type": "node",
      "id": 6964740512,
      "lat": 30.210271,
      "lon": -95.527769
    },
    {
      "type": "node",
      "id": 1391829522,
      "lat": 30.1408873,
      "lon": -95.4721304
    },
    {
      "type": "node",
      "id": 1391829528,
      "lat": 30.1403399,
      "lon": -95.4716154
    },
    {
      "type": "node",
      "id": 1391829576,
      "lat": 30.1400119,
      "lon": -95.47232
    },
    {
      "type": "node",
      "id": 1391829580,
      "lat": 30.139933,
      "lon": -95.4722127
    },
    {
      "type": "node",
      "id": 1391829588,
      "lat": 30.1404837,
      "lon": -95.4727205
    },
    {
      "type": "node",
      "id": 1391829596,
      "lat": 30.139978,
      "lon": -95.4722591
    },
    {
      "type": "node",
      "id": 1391829645,
      "lat": 30.139965,
      "lon": -95.4722784
    },
    {
      "type": "node",
      "id": 1391829653,
      "lat": 30.1400986,
      "lon": -95.4724576
    },
    {
      "type": "node",
      "id": 1391829661,
      "lat": 30.1401404,
      "lon": -95.472404
    },
    {
      "type": "node",
      "id": 1391829695,
      "lat": 30.1399843,
      "lon": -95.4723506
    },
    {
      "type": "node",
      "id": 2153674632,
      "lat": 30.1850537,
      "lon": -95.4886797
    },
    {
      "type": "node",
      "id": 2153674634,
      "lat": 30.185063,
      "lon": -95.4885483
    },
    {
      "type": "node",
      "id": 2153674680,
      "lat": 30.1848543,
      "lon": -95.4886422
    },
    {
      "type": "node",
      "id": 2153674695,
      "lat": 30.1848706,
      "lon": -95.4885107
    },
    {
      "type": "node",
      "id": 6595408033,
      "lat": 30.1838098,
      "lon": -95.4880302
    },
    {
      "type": "node",
      "id": 6595408034,
      "lat": 30.1835998,
      "lon": -95.4877827
    },
    {
      "type": "node",
      "id": 6595408035,
      "lat": 30.1838481,
      "lon": -95.4875048
    },
    {
      "type": "node",
      "id": 6595408036,
      "lat": 30.1840479,
      "lon": -95.487701
    },
    {
      "type": "node",
      "id": 6595408037,
      "lat": 30.1840479,
      "lon": -95.487778
    },
    {
      "type": "node",
      "id": 6887210687,
      "lat": 30.1775018,
      "lon": -95.4751875
    },
    {
      "type": "node",
      "id": 6887210688,
      "lat": 30.1773594,
      "lon": -95.4751838
    },
    {
      "type": "node",
      "id": 6887210689,
      "lat": 30.1773653,
      "lon": -95.4748827
    },
    {
      "type": "node",
      "id": 6887210690,
      "lat": 30.1775077,
      "lon": -95.4748864
    },
    {
      "type": "node",
      "id": 5078866727,
      "lat": 30.2090761,
      "lon": -95.5009166
    },
    {
      "type": "node",
      "id": 5078866815,
      "lat": 30.209228,
      "lon": -95.5011771
    },
    {
      "type": "node",
      "id": 5078866867,
      "lat": 30.2090163,
      "lon": -95.501051
    },
    {
      "type": "node",
      "id": 5078866896,
      "lat": 30.2092878,
      "lon": -95.5010427
    },
    {
      "type": "node",
      "id": 1361775031,
      "lat": 30.163024,
      "lon": -95.4663525
    },
    {
      "type": "node",
      "id": 1361775034,
      "lat": 30.163024,
      "lon": -95.4664129
    },
    {
      "type": "node",
      "id": 1361775063,
      "lat": 30.1630514,
      "lon": -95.4663208
    },
    {
      "type": "node",
      "id": 1361775076,
      "lat": 30.1630736,
      "lon": -95.4665954
    },
    {
      "type": "node",
      "id": 1361775149,
      "lat": 30.1631531,
      "lon": -95.4666015
    },
    {
      "type": "node",
      "id": 1361775183,
      "lat": 30.1631884,
      "lon": -95.466615
    },
    {
      "type": "node",
      "id": 1361775282,
      "lat": 30.1632757,
      "lon": -95.4671472
    },
    {
      "type": "node",
      "id": 1361775306,
      "lat": 30.1632997,
      "lon": -95.4666198
    },
    {
      "type": "node",
      "id": 1361775366,
      "lat": 30.1633578,
      "lon": -95.4663362
    },
    {
      "type": "node",
      "id": 1361775376,
      "lat": 30.16339,
      "lon": -95.467263
    },
    {
      "type": "node",
      "id": 1361775388,
      "lat": 30.1633947,
      "lon": -95.4671531
    },
    {
      "type": "node",
      "id": 1361775535,
      "lat": 30.1635863,
      "lon": -95.4663555
    },
    {
      "type": "node",
      "id": 1361775972,
      "lat": 30.163926,
      "lon": -95.4671915
    },
    {
      "type": "node",
      "id": 1361775991,
      "lat": 30.163926,
      "lon": -95.4673035
    },
    {
      "type": "node",
      "id": 1361776166,
      "lat": 30.1640585,
      "lon": -95.4672004
    },
    {
      "type": "node",
      "id": 1361776205,
      "lat": 30.1641003,
      "lon": -95.4663926
    },
    {
      "type": "node",
      "id": 4330072759,
      "lat": 30.1693576,
      "lon": -95.4710102
    },
    {
      "type": "node",
      "id": 4330072760,
      "lat": 30.1689518,
      "lon": -95.4704281
    },
    {
      "type": "node",
      "id": 4330072761,
      "lat": 30.169455,
      "lon": -95.4699775
    },
    {
      "type": "node",
      "id": 1361775369,
      "lat": 30.1633606,
      "lon": -95.4662725
    },
    {
      "type": "node",
      "id": 1361775539,
      "lat": 30.1635876,
      "lon": -95.4662861
    },
    {
      "type": "node",
      "id": 1361775820,
      "lat": 30.163778,
      "lon": -95.4626836
    },
    {
      "type": "node",
      "id": 1361775905,
      "lat": 30.1638481,
      "lon": -95.4626855
    },
    {
      "type": "node",
      "id": 1361775914,
      "lat": 30.1638527,
      "lon": -95.4626221
    },
    {
      "type": "node",
      "id": 1361776089,
      "lat": 30.1640063,
      "lon": -95.4626893
    },
    {
      "type": "node",
      "id": 1361776092,
      "lat": 30.1640093,
      "lon": -95.4626353
    },
    {
      "type": "node",
      "id": 1361776176,
      "lat": 30.1640829,
      "lon": -95.4626949
    },
    {
      "type": "node",
      "id": 1838948539,
      "lat": 30.164078,
      "lon": -95.462798
    },
    {
      "type": "node",
      "id": 1838948564,
      "lat": 30.1637729,
      "lon": -95.4627737
    },
    {
      "type": "node",
      "id": 4330072758,
      "lat": 30.1698492,
      "lon": -95.4705435
    },
    {
      "type": "node",
      "id": 4330072762,
      "lat": 30.1695431,
      "lon": -95.470109
    },
    {
      "type": "node",
      "id": 1347493118,
      "lat": 30.1693604,
      "lon": -95.4532515
    },
    {
      "type": "node",
      "id": 1347493166,
      "lat": 30.169372,
      "lon": -95.4537299
    },
    {
      "type": "node",
      "id": 1347493188,
      "lat": 30.1693952,
      "lon": -95.4532504
    },
    {
      "type": "node",
      "id": 1360004063,
      "lat": 30.1663189,
      "lon": -95.4591196
    },
    {
      "type": "node",
      "id": 1360004064,
      "lat": 30.1665149,
      "lon": -95.4592527
    },
    {
      "type": "node",
      "id": 1360004065,
      "lat": 30.166685,
      "lon": -95.4583985
    },
    {
      "type": "node",
      "id": 1360004068,
      "lat": 30.1669137,
      "lon": -95.4585538
    },
    {
      "type": "node",
      "id": 1361775005,
      "lat": 30.162961,
      "lon": -95.4548402
    },
    {
      "type": "node",
      "id": 1361775020,
      "lat": 30.1630201,
      "lon": -95.4553612
    },
    {
      "type": "node",
      "id": 1361775024,
      "lat": 30.1630235,
      "lon": -95.4558136
    },
    {
      "type": "node",
      "id": 1361775026,
      "lat": 30.1630235,
      "lon": -95.4558561
    },
    {
      "type": "node",
      "id": 1361775051,
      "lat": 30.1630444,
      "lon": -95.4557759
    },
    {
      "type": "node",
      "id": 1361775055,
      "lat": 30.163045,
      "lon": -95.455885
    },
    {
      "type": "node",
      "id": 1361775098,
      "lat": 30.1630828,
      "lon": -95.4557614
    },
    {
      "type": "node",
      "id": 1361775105,
      "lat": 30.1630853,
      "lon": -95.4562452
    },
    {
      "type": "node",
      "id": 1361775144,
      "lat": 30.1631286,
      "lon": -95.4557729
    },
    {
      "type": "node",
      "id": 1361775152,
      "lat": 30.1631567,
      "lon": -95.454819
    },
    {
      "type": "node",
      "id": 1361775180,
      "lat": 30.1631811,
      "lon": -95.4550406
    },
    {
      "type": "node",
      "id": 1361775359,
      "lat": 30.1633517,
      "lon": -95.4557398
    },
    {
      "type": "node",
      "id": 1361775365,
      "lat": 30.163353,
      "lon": -95.4557684
    },
    {
      "type": "node",
      "id": 1361775391,
      "lat": 30.1634013,
      "lon": -95.4561743
    },
    {
      "type": "node",
      "id": 1361775396,
      "lat": 30.1634052,
      "lon": -95.4562
    },
    {
      "type": "node",
      "id": 1361775568,
      "lat": 30.1636112,
      "lon": -95.4548472
    },
    {
      "type": "node",
      "id": 1361775592,
      "lat": 30.1636255,
      "lon": -95.4549722
    },
    {
      "type": "node",
      "id": 1361775615,
      "lat": 30.1636428,
      "lon": -95.4564317
    },
    {
      "type": "node",
      "id": 1361775634,
      "lat": 30.1636581,
      "lon": -95.455274
    },
    {
      "type": "node",
      "id": 1361775670,
      "lat": 30.1636703,
      "lon": -95.45534
    },
    {
      "type": "node",
      "id": 1361775769,
      "lat": 30.1637444,
      "lon": -95.4554244
    },
    {
      "type": "node",
      "id": 1361775776,
      "lat": 30.1637509,
      "lon": -95.4556522
    },
    {
      "type": "node",
      "id": 1361775781,
      "lat": 30.1637535,
      "lon": -95.4557066
    },
    {
      "type": "node",
      "id": 1361775808,
      "lat": 30.1637548,
      "lon": -95.4555179
    },
    {
      "type": "node",
      "id": 1361775824,
      "lat": 30.1637876,
      "lon": -95.4570609
    },
    {
      "type": "node",
      "id": 1361775832,
      "lat": 30.1637878,
      "lon": -95.4553186
    },
    {
      "type": "node",
      "id": 1361775840,
      "lat": 30.16379,
      "lon": -95.455352
    },
    {
      "type": "node",
      "id": 1361775844,
      "lat": 30.1637988,
      "lon": -95.4548166
    },
    {
      "type": "node",
      "id": 1361775861,
      "lat": 30.1638213,
      "lon": -95.4555889
    },
    {
      "type": "node",
      "id": 1361775872,
      "lat": 30.163824,
      "lon": -95.4556432
    },
    {
      "type": "node",
      "id": 1361775887,
      "lat": 30.1638495,
      "lon": -95.4552467
    },
    {
      "type": "node",
      "id": 1361775920,
      "lat": 30.1638555,
      "lon": -95.453614
    },
    {
      "type": "node",
      "id": 1361775930,
      "lat": 30.1638646,
      "lon": -95.4556531
    },
    {
      "type": "node",
      "id": 1361775959,
      "lat": 30.1639144,
      "lon": -95.4560971
    },
    {
      "type": "node",
      "id": 1361776050,
      "lat": 30.1639985,
      "lon": -95.4550278
    },
    {
      "type": "node",
      "id": 1361776055,
      "lat": 30.1639995,
      "lon": -95.454715
    },
    {
      "type": "node",
      "id": 1361776060,
      "lat": 30.164001,
      "lon": -95.4536823
    },
    {
      "type": "node",
      "id": 1361776077,
      "lat": 30.1640015,
      "lon": -95.4538379
    },
    {
      "type": "node",
      "id": 1361776141,
      "lat": 30.1640496,
      "lon": -95.4536132
    },
    {
      "type": "node",
      "id": 1361776144,
      "lat": 30.1640497,
      "lon": -95.4536785
    },
    {
      "type": "node",
      "id": 1361776148,
      "lat": 30.1640504,
      "lon": -95.4547126
    },
    {
      "type": "node",
      "id": 1361776151,
      "lat": 30.1640545,
      "lon": -95.4538403
    },
    {
      "type": "node",
      "id": 1361776182,
      "lat": 30.1640876,
      "lon": -95.4558432
    },
    {
      "type": "node",
      "id": 1361776292,
      "lat": 30.164179,
      "lon": -95.4562642
    },
    {
      "type": "node",
      "id": 1361776332,
      "lat": 30.1642429,
      "lon": -95.4570367
    },
    {
      "type": "node",
      "id": 1361776352,
      "lat": 30.1643185,
      "lon": -95.4568889
    },
    {
      "type": "node",
      "id": 1361776387,
      "lat": 30.1643394,
      "lon": -95.4574607
    },
    {
      "type": "node",
      "id": 1361776396,
      "lat": 30.1643525,
      "lon": -95.4570013
    },
    {
      "type": "node",
      "id": 1361776402,
      "lat": 30.1644112,
      "lon": -95.4575241
    },
    {
      "type": "node",
      "id": 1361776510,
      "lat": 30.164496,
      "lon": -95.4574954
    },
    {
      "type": "node",
      "id": 1361776689,
      "lat": 30.1647453,
      "lon": -95.4554752
    },
    {
      "type": "node",
      "id": 1361776690,
      "lat": 30.1646697,
      "lon": -95.4546033
    },
    {
      "type": "node",
      "id": 1361776696,
      "lat": 30.1647095,
      "lon": -95.4539631
    },
    {
      "type": "node",
      "id": 1361776700,
      "lat": 30.1647117,
      "lon": -95.4536114
    },
    {
      "type": "node",
      "id": 1361776754,
      "lat": 30.1647768,
      "lon": -95.4588238
    },
    {
      "type": "node",
      "id": 1361776763,
      "lat": 30.1648034,
      "lon": -95.455955
    },
    {
      "type": "node",
      "id": 1361776840,
      "lat": 30.1649297,
      "lon": -95.4536186
    },
    {
      "type": "node",
      "id": 1361776852,
      "lat": 30.1649831,
      "lon": -95.4567601
    },
    {
      "type": "node",
      "id": 1361776918,
      "lat": 30.1654072,
      "lon": -95.4586332
    },
    {
      "type": "node",
      "id": 1361776921,
      "lat": 30.1658072,
      "lon": -95.4557803
    },
    {
      "type": "node",
      "id": 1361776924,
      "lat": 30.1659765,
      "lon": -95.4564659
    },
    {
      "type": "node",
      "id": 1361776928,
      "lat": 30.165686,
      "lon": -95.4539893
    },
    {
      "type": "node",
      "id": 1361776932,
      "lat": 30.1656746,
      "lon": -95.4545969
    },
    {
      "type": "node",
      "id": 1367380492,
      "lat": 30.1688828,
      "lon": -95.4594083
    },
    {
      "type": "node",
      "id": 1367380493,
      "lat": 30.1688815,
      "lon": -95.4596872
    },
    {
      "type": "node",
      "id": 1367380527,
      "lat": 30.169339,
      "lon": -95.4594112
    },
    {
      "type": "node",
      "id": 1367380529,
      "lat": 30.1693373,
      "lon": -95.4596907
    },
    {
      "type": "node",
      "id": 1367380548,
      "lat": 30.1695098,
      "lon": -95.4564896
    },
    {
      "type": "node",
      "id": 2642610797,
      "lat": 30.1647192,
      "lon": -95.454653
    },
    {
      "type": "node",
      "id": 2642610798,
      "lat": 30.1646666,
      "lon": -95.4546496
    },
    {
      "type": "node",
      "id": 2642610799,
      "lat": 30.1646603,
      "lon": -95.4552904
    },
    {
      "type": "node",
      "id": 2642610801,
      "lat": 30.1648376,
      "lon": -95.4558903
    },
    {
      "type": "node",
      "id": 2642610804,
      "lat": 30.1638842,
      "lon": -95.4551957
    },
    {
      "type": "node",
      "id": 2642610805,
      "lat": 30.1647251,
      "lon": -95.4552204
    },
    {
      "type": "node",
      "id": 2642610809,
      "lat": 30.1656824,
      "lon": -95.4541802
    },
    {
      "type": "node",
      "id": 2642610810,
      "lat": 30.1650536,
      "lon": -95.4567358
    },
    {
      "type": "node",
      "id": 2642610811,
      "lat": 30.1639987,
      "lon": -95.4536931
    },
    {
      "type": "node",
      "id": 2642610812,
      "lat": 30.1647977,
      "lon": -95.4553506
    },
    {
      "type": "node",
      "id": 2642610814,
      "lat": 30.1647845,
      "lon": -95.4553082
    },
    {
      "type": "node",
      "id": 2642610818,
      "lat": 30.1647587,
      "lon": -95.4554383
    },
    {
      "type": "node",
      "id": 2642610824,
      "lat": 30.1647357,
      "lon": -95.4586474
    },
    {
      "type": "node",
      "id": 2642610829,
      "lat": 30.1647789,
      "lon": -95.4586352
    },
    {
      "type": "node",
      "id": 2642610832,
      "lat": 30.1640542,
      "lon": -95.4538986
    },
    {
      "type": "node",
      "id": 2642610837,
      "lat": 30.1639594,
      "lon": -95.4563328
    },
    {
      "type": "node",
      "id": 2642610838,
      "lat": 30.164747,
      "lon": -95.455287
    },
    {
      "type": "node",
      "id": 2642610842,
      "lat": 30.1647217,
      "lon": -95.4548937
    },
    {
      "type": "node",
      "id": 2642610844,
      "lat": 30.1643107,
      "lon": -95.4573347
    },
    {
      "type": "node",
      "id": 2642610846,
      "lat": 30.1639993,
      "lon": -95.4547918
    },
    {
      "type": "node",
      "id": 2642610847,
      "lat": 30.1647873,
      "lon": -95.4559154
    },
    {
      "type": "node",
      "id": 2642610853,
      "lat": 30.1650452,
      "lon": -95.4570748
    },
    {
      "type": "node",
      "id": 2642610856,
      "lat": 30.1648047,
      "lon": -95.4557422
    },
    {
      "type": "node",
      "id": 2642610857,
      "lat": 30.1646881,
      "lon": -95.4554582
    },
    {
      "type": "node",
      "id": 2642610858,
      "lat": 30.1647925,
      "lon": -95.4553981
    },
    {
      "type": "node",
      "id": 2642610859,
      "lat": 30.1647124,
      "lon": -95.4538391
    },
    {
      "type": "node",
      "id": 2642610860,
      "lat": 30.1641374,
      "lon": -95.4569476
    },
    {
      "type": "node",
      "id": 2642610864,
      "lat": 30.1646928,
      "lon": -95.4554917
    },
    {
      "type": "node",
      "id": 2642610866,
      "lat": 30.1647114,
      "lon": -95.4536626
    },
    {
      "type": "node",
      "id": 2642610871,
      "lat": 30.1649526,
      "lon": -95.4559041
    },
    {
      "type": "node",
      "id": 2642610875,
      "lat": 30.1646636,
      "lon": -95.4552254
    },
    {
      "type": "node",
      "id": 2970174792,
      "lat": 30.1693384,
      "lon": -95.45954
    },
    {
      "type": "node",
      "id": 2970174812,
      "lat": 30.1691586,
      "lon": -95.459689
    },
    {
      "type": "node",
      "id": 5700531057,
      "lat": 30.1640552,
      "lon": -95.4545876
    },
    {
      "type": "node",
      "id": 5700531059,
      "lat": 30.164063,
      "lon": -95.4540206
    },
    {
      "type": "node",
      "id": 6966389354,
      "lat": 30.1649842,
      "lon": -95.4560246
    },
    {
      "type": "node",
      "id": 7123890726,
      "lat": 30.1666021,
      "lon": -95.4591674
    },
    {
      "type": "node",
      "id": 7123890727,
      "lat": 30.1665695,
      "lon": -95.4591452
    },
    {
      "type": "node",
      "id": 1347493408,
      "lat": 30.1693778,
      "lon": -95.4525273
    },
    {
      "type": "node",
      "id": 1361775927,
      "lat": 30.1638627,
      "lon": -95.452647
    },
    {
      "type": "node",
      "id": 1361776846,
      "lat": 30.164959,
      "lon": -95.4525798
    },
    {
      "type": "node",
      "id": 1844395641,
      "lat": 30.1644119,
      "lon": -95.4526125
    },
    {
      "type": "node",
      "id": 1844395649,
      "lat": 30.1644229,
      "lon": -95.4526506
    },
    {
      "type": "node",
      "id": 1844395672,
      "lat": 30.1641611,
      "lon": -95.4526561
    },
    {
      "type": "node",
      "id": 1844395675,
      "lat": 30.1647983,
      "lon": -95.4526585
    },
    {
      "type": "node",
      "id": 1844395679,
      "lat": 30.1647996,
      "lon": -95.4525755
    },
    {
      "type": "node",
      "id": 1844395686,
      "lat": 30.1645393,
      "lon": -95.4526643
    },
    {
      "type": "node",
      "id": 1844395723,
      "lat": 30.1642959,
      "lon": -95.4526067
    },
    {
      "type": "node",
      "id": 1844395731,
      "lat": 30.1642784,
      "lon": -95.4526384
    },
    {
      "type": "node",
      "id": 1347492896,
      "lat": 30.1701428,
      "lon": -95.4536994
    },
    {
      "type": "node",
      "id": 1347492901,
      "lat": 30.1701729,
      "lon": -95.4535104
    },
    {
      "type": "node",
      "id": 1347492992,
      "lat": 30.1702681,
      "lon": -95.4534325
    },
    {
      "type": "node",
      "id": 1347493008,
      "lat": 30.1701382,
      "lon": -95.4535116
    },
    {
      "type": "node",
      "id": 1347493413,
      "lat": 30.1701711,
      "lon": -95.4534356
    },
    {
      "type": "node",
      "id": 1367380550,
      "lat": 30.169522,
      "lon": -95.4569575
    },
    {
      "type": "node",
      "id": 1367380552,
      "lat": 30.1696583,
      "lon": -95.4580983
    },
    {
      "type": "node",
      "id": 1367380556,
      "lat": 30.1696552,
      "lon": -95.4594792
    },
    {
      "type": "node",
      "id": 1367380557,
      "lat": 30.1696572,
      "lon": -95.4589033
    },
    {
      "type": "node",
      "id": 1367380558,
      "lat": 30.1697486,
      "lon": -95.4537129
    },
    {
      "type": "node",
      "id": 1367380573,
      "lat": 30.1699224,
      "lon": -95.4580987
    },
    {
      "type": "node",
      "id": 1367380574,
      "lat": 30.1699224,
      "lon": -95.4580489
    },
    {
      "type": "node",
      "id": 1367380576,
      "lat": 30.1700804,
      "lon": -95.4564697
    },
    {
      "type": "node",
      "id": 1367380578,
      "lat": 30.1700843,
      "lon": -95.4581753
    },
    {
      "type": "node",
      "id": 1367380582,
      "lat": 30.1700845,
      "lon": -95.4580492
    },
    {
      "type": "node",
      "id": 1367380587,
      "lat": 30.1700926,
      "lon": -95.4569376
    },
    {
      "type": "node",
      "id": 1367380588,
      "lat": 30.1701508,
      "lon": -95.4581754
    },
    {
      "type": "node",
      "id": 1367380589,
      "lat": 30.1701499,
      "lon": -95.4589041
    },
    {
      "type": "node",
      "id": 1367380590,
      "lat": 30.1701625,
      "lon": -95.4594808
    },
    {
      "type": "node",
      "id": 1367380592,
      "lat": 30.1701635,
      "lon": -95.4590546
    },
    {
      "type": "node",
      "id": 1367380594,
      "lat": 30.1702283,
      "lon": -95.4590548
    },
    {
      "type": "node",
      "id": 1367380596,
      "lat": 30.1702286,
      "lon": -95.4589058
    },
    {
      "type": "node",
      "id": 2970174806,
      "lat": 30.1696556,
      "lon": -95.459299
    },
    {
      "type": "node",
      "id": 1347493096,
      "lat": 30.1702456,
      "lon": -95.4524992
    },
    {
      "type": "node",
      "id": 1347502344,
      "lat": 30.1986262,
      "lon": -95.4562971
    },
    {
      "type": "node",
      "id": 1347502416,
      "lat": 30.1984702,
      "lon": -95.4562411
    },
    {
      "type": "node",
      "id": 1347502508,
      "lat": 30.198316,
      "lon": -95.4571051
    },
    {
      "type": "node",
      "id": 1347502565,
      "lat": 30.1987302,
      "lon": -95.4563005
    },
    {
      "type": "node",
      "id": 1347502607,
      "lat": 30.1985246,
      "lon": -95.4562166
    },
    {
      "type": "node",
      "id": 1347502641,
      "lat": 30.1987302,
      "lon": -95.4571051
    },
    {
      "type": "node",
      "id": 1347502648,
      "lat": 30.198573,
      "lon": -95.4562236
    },
    {
      "type": "node",
      "id": 1347502652,
      "lat": 30.1984249,
      "lon": -95.4562991
    },
    {
      "type": "node",
      "id": 1347502685,
      "lat": 30.198316,
      "lon": -95.4563005
    },
    {
      "type": "node",
      "id": 1020505396,
      "lat": 30.2093948,
      "lon": -95.4618889
    },
    {
      "type": "node",
      "id": 1342550007,
      "lat": 30.2089491,
      "lon": -95.4602154
    },
    {
      "type": "node",
      "id": 1342550018,
      "lat": 30.2094498,
      "lon": -95.4618963
    },
    {
      "type": "node",
      "id": 1342550122,
      "lat": 30.2091884,
      "lon": -95.4597585
    },
    {
      "type": "node",
      "id": 1342550126,
      "lat": 30.2098716,
      "lon": -95.4618755
    },
    {
      "type": "node",
      "id": 1342550200,
      "lat": 30.2093751,
      "lon": -95.4628516
    },
    {
      "type": "node",
      "id": 1342550207,
      "lat": 30.2102874,
      "lon": -95.4626439
    },
    {
      "type": "node",
      "id": 1342550369,
      "lat": 30.2091735,
      "lon": -95.4602639
    },
    {
      "type": "node",
      "id": 1342550370,
      "lat": 30.2102904,
      "lon": -95.4623462
    },
    {
      "type": "node",
      "id": 1342550503,
      "lat": 30.2103322,
      "lon": -95.4627685
    },
    {
      "type": "node",
      "id": 1342550617,
      "lat": 30.2092542,
      "lon": -95.4605408
    },
    {
      "type": "node",
      "id": 1342550634,
      "lat": 30.2094109,
      "lon": -95.4632393
    },
    {
      "type": "node",
      "id": 1342550710,
      "lat": 30.2089521,
      "lon": -95.4600389
    },
    {
      "type": "node",
      "id": 1342550724,
      "lat": 30.2094498,
      "lon": -95.4617301
    },
    {
      "type": "node",
      "id": 1342550991,
      "lat": 30.2089731,
      "lon": -95.4597551
    },
    {
      "type": "node",
      "id": 1342550998,
      "lat": 30.2103592,
      "lon": -95.4618894
    },
    {
      "type": "node",
      "id": 1342551232,
      "lat": 30.2101647,
      "lon": -95.4626405
    },
    {
      "type": "node",
      "id": 1342551388,
      "lat": 30.2091735,
      "lon": -95.4602258
    },
    {
      "type": "node",
      "id": 1342551443,
      "lat": 30.2106422,
      "lon": -95.4605719
    },
    {
      "type": "node",
      "id": 1342551445,
      "lat": 30.2103263,
      "lon": -95.4632704
    },
    {
      "type": "node",
      "id": 1342551468,
      "lat": 30.2091884,
      "lon": -95.4600458
    },
    {
      "type": "node",
      "id": 1342551562,
      "lat": 30.2092572,
      "lon": -95.4602673
    },
    {
      "type": "node",
      "id": 1342551567,
      "lat": 30.2094199,
      "lon": -95.4628551
    },
    {
      "type": "node",
      "id": 1342551609,
      "lat": 30.2098716,
      "lon": -95.461744
    },
    {
      "type": "node",
      "id": 1342551689,
      "lat": 30.2103502,
      "lon": -95.4623497
    },
    {
      "type": "node",
      "id": 1342551785,
      "lat": 30.2101617,
      "lon": -95.4627685
    },
    {
      "type": "node",
      "id": 1342550256,
      "lat": 30.2082615,
      "lon": -95.4577425
    },
    {
      "type": "node",
      "id": 1342550491,
      "lat": 30.208384,
      "lon": -95.457505
    },
    {
      "type": "node",
      "id": 1342551378,
      "lat": 30.2083855,
      "lon": -95.4577443
    },
    {
      "type": "node",
      "id": 1342551625,
      "lat": 30.2082615,
      "lon": -95.457505
    },
    {
      "type": "node",
      "id": 5125447928,
      "lat": 30.2087377,
      "lon": -95.4532422
    },
    {
      "type": "node",
      "id": 3493885393,
      "lat": 30.2086325,
      "lon": -95.4521187
    },
    {
      "type": "node",
      "id": 5125447929,
      "lat": 30.2086112,
      "lon": -95.4530762
    },
    {
      "type": "node",
      "id": 5125447930,
      "lat": 30.2086167,
      "lon": -95.4529716
    },
    {
      "type": "node",
      "id": 5125447931,
      "lat": 30.2085883,
      "lon": -95.4529696
    },
    {
      "type": "node",
      "id": 1342550161,
      "lat": 30.2095115,
      "lon": -95.459447
    },
    {
      "type": "node",
      "id": 1342550226,
      "lat": 30.2104746,
      "lon": -95.4595024
    },
    {
      "type": "node",
      "id": 1342550552,
      "lat": 30.2091914,
      "lon": -95.4595474
    },
    {
      "type": "node",
      "id": 1342551124,
      "lat": 30.2095085,
      "lon": -95.4593189
    },
    {
      "type": "node",
      "id": 1342551274,
      "lat": 30.2106661,
      "lon": -95.4595093
    },
    {
      "type": "node",
      "id": 1342551524,
      "lat": 30.2092064,
      "lon": -95.4594435
    },
    {
      "type": "node",
      "id": 1342551606,
      "lat": 30.2104806,
      "lon": -95.4593362
    },
    {
      "type": "node",
      "id": 1342551684,
      "lat": 30.2089731,
      "lon": -95.4595439
    },
    {
      "type": "node",
      "id": 5125447923,
      "lat": 30.2097196,
      "lon": -95.4532418
    },
    {
      "type": "node",
      "id": 5125447924,
      "lat": 30.2092414,
      "lon": -95.4532086
    },
    {
      "type": "node",
      "id": 5125447925,
      "lat": 30.2092352,
      "lon": -95.453328
    },
    {
      "type": "node",
      "id": 5125447926,
      "lat": 30.208961,
      "lon": -95.4533089
    },
    {
      "type": "node",
      "id": 5125447927,
      "lat": 30.2089636,
      "lon": -95.4532579
    },
    {
      "type": "node",
      "id": 5125447920,
      "lat": 30.2099206,
      "lon": -95.4522083
    },
    {
      "type": "node",
      "id": 5125447921,
      "lat": 30.2098797,
      "lon": -95.4529945
    },
    {
      "type": "node",
      "id": 5125447922,
      "lat": 30.209733,
      "lon": -95.4529843
    },
    {
      "type": "node",
      "id": 5330111523,
      "lat": 30.2263179,
      "lon": -95.5199376
    },
    {
      "type": "node",
      "id": 5330111524,
      "lat": 30.2262887,
      "lon": -95.5200932
    },
    {
      "type": "node",
      "id": 5330111525,
      "lat": 30.2262653,
      "lon": -95.5200873
    },
    {
      "type": "node",
      "id": 5330111526,
      "lat": 30.2262231,
      "lon": -95.5203113
    },
    {
      "type": "node",
      "id": 5330111527,
      "lat": 30.2261751,
      "lon": -95.5202992
    },
    {
      "type": "node",
      "id": 5330111528,
      "lat": 30.2261478,
      "lon": -95.5204434
    },
    {
      "type": "node",
      "id": 5330111529,
      "lat": 30.2256884,
      "lon": -95.5203273
    },
    {
      "type": "node",
      "id": 5330111530,
      "lat": 30.2257149,
      "lon": -95.5201874
    },
    {
      "type": "node",
      "id": 5330111531,
      "lat": 30.2254301,
      "lon": -95.5201153
    },
    {
      "type": "node",
      "id": 5330111532,
      "lat": 30.2254948,
      "lon": -95.519773
    },
    {
      "type": "node",
      "id": 5330111533,
      "lat": 30.2253749,
      "lon": -95.5197426
    },
    {
      "type": "node",
      "id": 5330111534,
      "lat": 30.2254392,
      "lon": -95.5194025
    },
    {
      "type": "node",
      "id": 5330111535,
      "lat": 30.2255634,
      "lon": -95.5194339
    },
    {
      "type": "node",
      "id": 5330111536,
      "lat": 30.2256567,
      "lon": -95.5189406
    },
    {
      "type": "node",
      "id": 5330111537,
      "lat": 30.2262566,
      "lon": -95.5190925
    },
    {
      "type": "node",
      "id": 5330111538,
      "lat": 30.2262489,
      "lon": -95.5191334
    },
    {
      "type": "node",
      "id": 5330111539,
      "lat": 30.2263525,
      "lon": -95.5191589
    },
    {
      "type": "node",
      "id": 5330111540,
      "lat": 30.2263162,
      "lon": -95.5193566
    },
    {
      "type": "node",
      "id": 5330111541,
      "lat": 30.2263364,
      "lon": -95.5193616
    },
    {
      "type": "node",
      "id": 5330111542,
      "lat": 30.2263093,
      "lon": -95.5195067
    },
    {
      "type": "node",
      "id": 5330111543,
      "lat": 30.2262557,
      "lon": -95.5194933
    },
    {
      "type": "node",
      "id": 5330111544,
      "lat": 30.226214,
      "lon": -95.5197166
    },
    {
      "type": "node",
      "id": 5330111545,
      "lat": 30.2262647,
      "lon": -95.5197293
    },
    {
      "type": "node",
      "id": 5330111546,
      "lat": 30.2262566,
      "lon": -95.5197725
    },
    {
      "type": "node",
      "id": 5330111547,
      "lat": 30.2262931,
      "lon": -95.5197817
    },
    {
      "type": "node",
      "id": 5330111548,
      "lat": 30.2262663,
      "lon": -95.5199247
    },
    {
      "type": "node",
      "id": 5330295978,
      "lat": 30.2270043,
      "lon": -95.5221607
    },
    {
      "type": "node",
      "id": 5330295979,
      "lat": 30.2267767,
      "lon": -95.5220999
    },
    {
      "type": "node",
      "id": 5330295980,
      "lat": 30.2267336,
      "lon": -95.5221321
    },
    {
      "type": "node",
      "id": 5330295981,
      "lat": 30.2267109,
      "lon": -95.5220881
    },
    {
      "type": "node",
      "id": 5330295982,
      "lat": 30.2267417,
      "lon": -95.5220638
    },
    {
      "type": "node",
      "id": 5330295983,
      "lat": 30.2268173,
      "lon": -95.5216669
    },
    {
      "type": "node",
      "id": 5330295984,
      "lat": 30.2270274,
      "lon": -95.5217203
    },
    {
      "type": "node",
      "id": 5330295985,
      "lat": 30.2270287,
      "lon": -95.5217119
    },
    {
      "type": "node",
      "id": 5330295986,
      "lat": 30.227056,
      "lon": -95.5217178
    },
    {
      "type": "node",
      "id": 5330295987,
      "lat": 30.2270718,
      "lon": -95.5217312
    },
    {
      "type": "node",
      "id": 5330295988,
      "lat": 30.2270821,
      "lon": -95.521745
    },
    {
      "type": "node",
      "id": 5330295989,
      "lat": 30.2270855,
      "lon": -95.5217613
    },
    {
      "type": "node",
      "id": 5330295990,
      "lat": 30.2270868,
      "lon": -95.5217796
    },
    {
      "type": "node",
      "id": 5330295991,
      "lat": 30.2270829,
      "lon": -95.5218043
    },
    {
      "type": "node",
      "id": 5330295992,
      "lat": 30.2270718,
      "lon": -95.5218024
    },
    {
      "type": "node",
      "id": 1429494021,
      "lat": 30.2284448,
      "lon": -95.5089579
    },
    {
      "type": "node",
      "id": 1429494022,
      "lat": 30.228489,
      "lon": -95.509037
    },
    {
      "type": "node",
      "id": 6884025395,
      "lat": 30.2284584,
      "lon": -95.5089233
    },
    {
      "type": "node",
      "id": 1429494006,
      "lat": 30.2286889,
      "lon": -95.5083354
    },
    {
      "type": "node",
      "id": 1429494010,
      "lat": 30.229128,
      "lon": -95.5084824
    },
    {
      "type": "node",
      "id": 1429494012,
      "lat": 30.2287054,
      "lon": -95.5091048
    },
    {
      "type": "node",
      "id": 1429494013,
      "lat": 30.2290211,
      "lon": -95.5084263
    },
    {
      "type": "node",
      "id": 1429494017,
      "lat": 30.2287907,
      "lon": -95.5090855
    },
    {
      "type": "node",
      "id": 1429494023,
      "lat": 30.2293737,
      "lon": -95.5087129
    },
    {
      "type": "node",
      "id": 1429494024,
      "lat": 30.2289939,
      "lon": -95.5084956
    },
    {
      "type": "node",
      "id": 1429494027,
      "lat": 30.2291091,
      "lon": -95.5092549
    },
    {
      "type": "node",
      "id": 1429494029,
      "lat": 30.2291523,
      "lon": -95.5092776
    },
    {
      "type": "node",
      "id": 1429494031,
      "lat": 30.2289552,
      "lon": -95.5091719
    },
    {
      "type": "node",
      "id": 1429494037,
      "lat": 30.2285072,
      "lon": -95.5089907
    },
    {
      "type": "node",
      "id": 1429494038,
      "lat": 30.2290901,
      "lon": -95.5093034
    },
    {
      "type": "node",
      "id": 1429494039,
      "lat": 30.229095,
      "lon": -95.5085665
    },
    {
      "type": "node",
      "id": 1429494040,
      "lat": 30.2287699,
      "lon": -95.5091387
    },
    {
      "type": "node",
      "id": 1429494041,
      "lat": 30.228725,
      "lon": -95.5083544
    },
    {
      "type": "node",
      "id": 1429494042,
      "lat": 30.2286905,
      "lon": -95.5091428
    },
    {
      "type": "node",
      "id": 1429494043,
      "lat": 30.2289355,
      "lon": -95.5092222
    },
    {
      "type": "node",
      "id": 6884025398,
      "lat": 30.2285548,
      "lon": -95.5086773
    }
  ]
}